<?xml version="1.0" encoding="UTF-8"?>
<gpx version="1.1" creator="Quickview Editor" xmlns="http://www.topografix.com/GPX/1/1">
  <trk>
    <name>senterra1_smoothed</name>
    <trkseg>
      <trkpt lat="25.146618" lon="-99.944712"></trkpt>
      <trkpt lat="25.146615063291744" lon="-99.94470386528707"></trkpt>
      <trkpt lat="25.146611853912177" lon="-99.94469471672821"></trkpt>
      <trkpt lat="25.146608381438256" lon="-99.94468461060981"></trkpt>
      <trkpt lat="25.14660465544694" lon="-99.94467360321825"></trkpt>
      <trkpt lat="25.146600685515182" lon="-99.9446617508399"></trkpt>
      <trkpt lat="25.14659648121995" lon="-99.94464910976114"></trkpt>
      <trkpt lat="25.146592052138203" lon="-99.94463573626832"></trkpt>
      <trkpt lat="25.14658740784689" lon="-99.94462168664788"></trkpt>
      <trkpt lat="25.146582557922976" lon="-99.94460701718614"></trkpt>
      <trkpt lat="25.146577511943416" lon="-99.9445917841695"></trkpt>
      <trkpt lat="25.146572279485174" lon="-99.94457604388434"></trkpt>
      <trkpt lat="25.146566870125202" lon="-99.94455985261705"></trkpt>
      <trkpt lat="25.146561293440463" lon="-99.944543266654"></trkpt>
      <trkpt lat="25.146555559007915" lon="-99.94452634228152"></trkpt>
      <trkpt lat="25.14654967640451" lon="-99.94450913578605"></trkpt>
      <trkpt lat="25.14654365520722" lon="-99.94449170345395"></trkpt>
      <trkpt lat="25.146537504992995" lon="-99.94447410157157"></trkpt>
      <trkpt lat="25.146531235338795" lon="-99.94445638642534"></trkpt>
      <trkpt lat="25.14652485582158" lon="-99.94443861430159"></trkpt>
      <trkpt lat="25.146518376018303" lon="-99.94442084148673"></trkpt>
      <trkpt lat="25.146511805505924" lon="-99.9444031242671"></trkpt>
      <trkpt lat="25.146505153861405" lon="-99.94438551892914"></trkpt>
      <trkpt lat="25.146498430661705" lon="-99.94436808175917"></trkpt>
      <trkpt lat="25.146491645483778" lon="-99.94435086904356"></trkpt>
      <trkpt lat="25.146484807904592" lon="-99.94433393706875"></trkpt>
      <trkpt lat="25.146477927501092" lon="-99.94431734212107"></trkpt>
      <trkpt lat="25.14647101385025" lon="-99.9443011404869"></trkpt>
      <trkpt lat="25.146464076529014" lon="-99.94428538845264"></trkpt>
      <trkpt lat="25.14645712511435" lon="-99.94427014230465"></trkpt>
      <trkpt lat="25.14645016918321" lon="-99.94425545832928"></trkpt>
      <trkpt lat="25.146443102612285" lon="-99.94424114296172"></trkpt>
      <trkpt lat="25.146435822027307" lon="-99.9442269594629"></trkpt>
      <trkpt lat="25.146428341128836" lon="-99.94421289935799"></trkpt>
      <trkpt lat="25.146420673617413" lon="-99.94419895417217"></trkpt>
      <trkpt lat="25.146412833193594" lon="-99.9441851154306"></trkpt>
      <trkpt lat="25.14640483355793" lon="-99.94417137465845"></trkpt>
      <trkpt lat="25.14639668841096" lon="-99.94415772338085"></trkpt>
      <trkpt lat="25.14638841145325" lon="-99.94414415312305"></trkpt>
      <trkpt lat="25.146380016385336" lon="-99.94413065541015"></trkpt>
      <trkpt lat="25.146371516907774" lon="-99.94411722176733"></trkpt>
      <trkpt lat="25.14636292672111" lon="-99.94410384371976"></trkpt>
      <trkpt lat="25.146354259525896" lon="-99.94409051279263"></trkpt>
      <trkpt lat="25.146345529022685" lon="-99.94407722051108"></trkpt>
      <trkpt lat="25.146336748912024" lon="-99.94406395840029"></trkpt>
      <trkpt lat="25.146327932894458" lon="-99.94405071798542"></trkpt>
      <trkpt lat="25.14631909467054" lon="-99.94403749079164"></trkpt>
      <trkpt lat="25.146310247940825" lon="-99.94402426834411"></trkpt>
      <trkpt lat="25.146301406405854" lon="-99.944011042168"></trkpt>
      <trkpt lat="25.146292583766186" lon="-99.94399780378849"></trkpt>
      <trkpt lat="25.14628379372236" lon="-99.94398454473075"></trkpt>
      <trkpt lat="25.146275049974932" lon="-99.94397125651992"></trkpt>
      <trkpt lat="25.146266366224452" lon="-99.9439579306812"></trkpt>
      <trkpt lat="25.146257756171472" lon="-99.94394455873972"></trkpt>
      <trkpt lat="25.14624923351653" lon="-99.94393113222068"></trkpt>
      <trkpt lat="25.14624081196019" lon="-99.94391764264924"></trkpt>
      <trkpt lat="25.146232505202995" lon="-99.94390408155057"></trkpt>
      <trkpt lat="25.146224326945493" lon="-99.9438904404498"></trkpt>
      <trkpt lat="25.146216290888237" lon="-99.94387671087216"></trkpt>
      <trkpt lat="25.146208410731777" lon="-99.94386288434278"></trkpt>
      <trkpt lat="25.146200700176667" lon="-99.94384895238682"></trkpt>
      <trkpt lat="25.146193063799103" lon="-99.9438349611624"></trkpt>
      <trkpt lat="25.14618540232962" lon="-99.9438209609815"></trkpt>
      <trkpt lat="25.14617772370025" lon="-99.94380694960002"></trkpt>
      <trkpt lat="25.146170035843035" lon="-99.94379292477392"></trkpt>
      <trkpt lat="25.14616234669001" lon="-99.94377888425912"></trkpt>
      <trkpt lat="25.146154664173203" lon="-99.94376482581157"></trkpt>
      <trkpt lat="25.14614699622465" lon="-99.9437507471872"></trkpt>
      <trkpt lat="25.146139350776398" lon="-99.94373664614196"></trkpt>
      <trkpt lat="25.146131735760463" lon="-99.94372252043176"></trkpt>
      <trkpt lat="25.146124159108897" lon="-99.94370836781256"></trkpt>
      <trkpt lat="25.146116628753724" lon="-99.94369418604028"></trkpt>
      <trkpt lat="25.146109152626984" lon="-99.94367997287085"></trkpt>
      <trkpt lat="25.146101738660718" lon="-99.94366572606023"></trkpt>
      <trkpt lat="25.146094394786946" lon="-99.94365144336436"></trkpt>
      <trkpt lat="25.146087128937715" lon="-99.94363712253916"></trkpt>
      <trkpt lat="25.146079949045053" lon="-99.94362276134055"></trkpt>
      <trkpt lat="25.146072863041002" lon="-99.94360835752448"></trkpt>
      <trkpt lat="25.146065878857595" lon="-99.9435939088469"></trkpt>
      <trkpt lat="25.14605900442686" lon="-99.94357941306374"></trkpt>
      <trkpt lat="25.14605224768084" lon="-99.94356486793093"></trkpt>
      <trkpt lat="25.14604561655157" lon="-99.94355027120442"></trkpt>
      <trkpt lat="25.146039118971082" lon="-99.9435356206401"></trkpt>
      <trkpt lat="25.146032762871407" lon="-99.94352091399398"></trkpt>
      <trkpt lat="25.14602655618459" lon="-99.94350614902194"></trkpt>
      <trkpt lat="25.14602050684266" lon="-99.94349132347993"></trkpt>
      <trkpt lat="25.146014622777653" lon="-99.9434764351239"></trkpt>
      <trkpt lat="25.146008911921605" lon="-99.94346148170976"></trkpt>
      <trkpt lat="25.146003382206548" lon="-99.94344646099348"></trkpt>
      <trkpt lat="25.14599804156452" lon="-99.94343137073096"></trkpt>
      <trkpt lat="25.14599289792755" lon="-99.94341620867817"></trkpt>
      <trkpt lat="25.1459878951797" lon="-99.94340096324397"></trkpt>
      <trkpt lat="25.145982975098494" lon="-99.94338562722182"></trkpt>
      <trkpt lat="25.14597814245616" lon="-99.94337020494436"></trkpt>
      <trkpt lat="25.145973402024936" lon="-99.94335470074432"></trkpt>
      <trkpt lat="25.14596875857705" lon="-99.94333911895437"></trkpt>
      <trkpt lat="25.145964216884742" lon="-99.94332346390723"></trkpt>
      <trkpt lat="25.145959781720244" lon="-99.94330773993559"></trkpt>
      <trkpt lat="25.14595545785579" lon="-99.94329195137215"></trkpt>
      <trkpt lat="25.14595125006362" lon="-99.94327610254962"></trkpt>
      <trkpt lat="25.145947163115963" lon="-99.94326019780065"></trkpt>
      <trkpt lat="25.14594320178505" lon="-99.94324424145799"></trkpt>
      <trkpt lat="25.145939370843124" lon="-99.94322823785431"></trkpt>
      <trkpt lat="25.145935675062407" lon="-99.9432121913223"></trkpt>
      <trkpt lat="25.145932119215143" lon="-99.94319610619469"></trkpt>
      <trkpt lat="25.145928708073566" lon="-99.94317998680413"></trkpt>
      <trkpt lat="25.14592544640991" lon="-99.94316383748338"></trkpt>
      <trkpt lat="25.1459223389964" lon="-99.94314766256508"></trkpt>
      <trkpt lat="25.145919390605282" lon="-99.94313146638196"></trkpt>
      <trkpt lat="25.145916606008786" lon="-99.94311525326668"></trkpt>
      <trkpt lat="25.145913989979146" lon="-99.94309902755198"></trkpt>
      <trkpt lat="25.14591154728859" lon="-99.94308279357054"></trkpt>
      <trkpt lat="25.145909282709365" lon="-99.94306655565505"></trkpt>
      <trkpt lat="25.145907201013696" lon="-99.94305031813822"></trkpt>
      <trkpt lat="25.145905306973823" lon="-99.94303408535272"></trkpt>
      <trkpt lat="25.145903605361973" lon="-99.94301786163129"></trkpt>
      <trkpt lat="25.145902100950387" lon="-99.9430016513066"></trkpt>
      <trkpt lat="25.145900798511295" lon="-99.94298545871133"></trkpt>
      <trkpt lat="25.145899702816934" lon="-99.94296928817825"></trkpt>
      <trkpt lat="25.145898818639537" lon="-99.94295314403996"></trkpt>
      <trkpt lat="25.145898150751343" lon="-99.94293703062922"></trkpt>
      <trkpt lat="25.145897906108615" lon="-99.94292098481182"></trkpt>
      <trkpt lat="25.14589825719778" lon="-99.94290503299017"></trkpt>
      <trkpt lat="25.14589915708631" lon="-99.94288916380171"></trkpt>
      <trkpt lat="25.145900558841664" lon="-99.94287336588395"></trkpt>
      <trkpt lat="25.145902415531314" lon="-99.94285762787445"></trkpt>
      <trkpt lat="25.145904680222724" lon="-99.94284193841068"></trkpt>
      <trkpt lat="25.145907305983357" lon="-99.94282628613014"></trkpt>
      <trkpt lat="25.145910245880685" lon="-99.94281065967034"></trkpt>
      <trkpt lat="25.145913452982168" lon="-99.94279504766881"></trkpt>
      <trkpt lat="25.145916880355276" lon="-99.94277943876303"></trkpt>
      <trkpt lat="25.145920481067474" lon="-99.94276382159049"></trkpt>
      <trkpt lat="25.14592420818623" lon="-99.94274818478871"></trkpt>
      <trkpt lat="25.145928014779006" lon="-99.94273251699522"></trkpt>
      <trkpt lat="25.145931853913275" lon="-99.94271680684751"></trkpt>
      <trkpt lat="25.145935678656492" lon="-99.94270104298306"></trkpt>
      <trkpt lat="25.145939442076134" lon="-99.9426852140394"></trkpt>
      <trkpt lat="25.14594309723966" lon="-99.94266930865405"></trkpt>
      <trkpt lat="25.14594659721454" lon="-99.94265331546447"></trkpt>
      <trkpt lat="25.145949895068238" lon="-99.94263722310819"></trkpt>
      <trkpt lat="25.145952943868224" lon="-99.94262102022273"></trkpt>
      <trkpt lat="25.145955696681956" lon="-99.94260469544558"></trkpt>
      <trkpt lat="25.145958106576913" lon="-99.94258823741424"></trkpt>
      <trkpt lat="25.145960126620544" lon="-99.94257163476621"></trkpt>
      <trkpt lat="25.145961709880325" lon="-99.94255487613901"></trkpt>
      <trkpt lat="25.145962809423725" lon="-99.94253795017016"></trkpt>
      <trkpt lat="25.145963378318203" lon="-99.94252084549713"></trkpt>
      <trkpt lat="25.145963369631236" lon="-99.94250355075744"></trkpt>
      <trkpt lat="25.145962736430278" lon="-99.94248605458858"></trkpt>
      <trkpt lat="25.145961431782794" lon="-99.9424683456281"></trkpt>
      <trkpt lat="25.145959408756273" lon="-99.94245041251344"></trkpt>
      <trkpt lat="25.145956645703873" lon="-99.94243205389454"></trkpt>
      <trkpt lat="25.14595318222565" lon="-99.9424131102988"></trkpt>
      <trkpt lat="25.145949063259323" lon="-99.94239363318017"></trkpt>
      <trkpt lat="25.14594433374263" lon="-99.94237367399252"></trkpt>
      <trkpt lat="25.1459390386133" lon="-99.94235328418979"></trkpt>
      <trkpt lat="25.145933222809067" lon="-99.94233251522583"></trkpt>
      <trkpt lat="25.145926931267656" lon="-99.9423114185546"></trkpt>
      <trkpt lat="25.145920208926803" lon="-99.94229004562995"></trkpt>
      <trkpt lat="25.14591310072424" lon="-99.9422684479058"></trkpt>
      <trkpt lat="25.145905651597698" lon="-99.94224667683609"></trkpt>
      <trkpt lat="25.145897906484905" lon="-99.94222478387466"></trkpt>
      <trkpt lat="25.14588991032359" lon="-99.94220282047547"></trkpt>
      <trkpt lat="25.145881708051494" lon="-99.94218083809236"></trkpt>
      <trkpt lat="25.145873344606343" lon="-99.94215888817929"></trkpt>
      <trkpt lat="25.145864864925862" lon="-99.94213702219014"></trkpt>
      <trkpt lat="25.145856313947796" lon="-99.9421152915788"></trkpt>
      <trkpt lat="25.145847736609866" lon="-99.94209374779919"></trkpt>
      <trkpt lat="25.14583917784981" lon="-99.94207244230522"></trkpt>
      <trkpt lat="25.145830682605343" lon="-99.94205142655076"></trkpt>
      <trkpt lat="25.14582229581422" lon="-99.94203075198975"></trkpt>
      <trkpt lat="25.145814062414154" lon="-99.94201047007607"></trkpt>
      <trkpt lat="25.145806027342886" lon="-99.94199063226361"></trkpt>
      <trkpt lat="25.145798235538138" lon="-99.94197129000631"></trkpt>
      <trkpt lat="25.14579073193765" lon="-99.94195249475804"></trkpt>
      <trkpt lat="25.145783561479156" lon="-99.94193429797272"></trkpt>
      <trkpt lat="25.145776769100376" lon="-99.94191675110424"></trkpt>
      <trkpt lat="25.14577039973905" lon="-99.9418999056065"></trkpt>
      <trkpt lat="25.145764498332902" lon="-99.94188381293343"></trkpt>
      <trkpt lat="25.145759109819675" lon="-99.9418685245389"></trkpt>
      <trkpt lat="25.14575427913708" lon="-99.94185409187683"></trkpt>
      <trkpt lat="25.145749912527528" lon="-99.94184042103234"></trkpt>
      <trkpt lat="25.145745873380726" lon="-99.94182736717046"></trkpt>
      <trkpt lat="25.145742142355378" lon="-99.94181490536509"></trkpt>
      <trkpt lat="25.14573870011017" lon="-99.94180301069008"></trkpt>
      <trkpt lat="25.145735527303813" lon="-99.94179165821927"></trkpt>
      <trkpt lat="25.14573260459502" lon="-99.94178082302653"></trkpt>
      <trkpt lat="25.145729912642476" lon="-99.94177048018568"></trkpt>
      <trkpt lat="25.14572743210489" lon="-99.94176060477062"></trkpt>
      <trkpt lat="25.145725143640966" lon="-99.94175117185519"></trkpt>
      <trkpt lat="25.1457230279094" lon="-99.94174215651321"></trkpt>
      <trkpt lat="25.1457210655689" lon="-99.94173353381858"></trkpt>
      <trkpt lat="25.145719237278165" lon="-99.94172527884514"></trkpt>
      <trkpt lat="25.1457175236959" lon="-99.94171736666675"></trkpt>
      <trkpt lat="25.145715905480802" lon="-99.94170977235726"></trkpt>
      <trkpt lat="25.145714363291575" lon="-99.9417024709905"></trkpt>
      <trkpt lat="25.145712877786917" lon="-99.94169543764038"></trkpt>
      <trkpt lat="25.14571142962554" lon="-99.94168864738072"></trkpt>
      <trkpt lat="25.145709999466135" lon="-99.94168207528534"></trkpt>
      <trkpt lat="25.145708567967414" lon="-99.94167569642816"></trkpt>
      <trkpt lat="25.14570711578807" lon="-99.94166948588301"></trkpt>
      <trkpt lat="25.145705623586803" lon="-99.94166341872373"></trkpt>
      <trkpt lat="25.145704072022333" lon="-99.94165747002421"></trkpt>
      <trkpt lat="25.14570244175334" lon="-99.94165161485826"></trkpt>
      <trkpt lat="25.145700713438536" lon="-99.94164582829977"></trkpt>
      <trkpt lat="25.145698867736623" lon="-99.94164008542258"></trkpt>
      <trkpt lat="25.1456968853063" lon="-99.94163436130053"></trkpt>
      <trkpt lat="25.145694746806274" lon="-99.9416286310075"></trkpt>
      <trkpt lat="25.145692432895242" lon="-99.94162286961735"></trkpt>
      <trkpt lat="25.14568992423191" lon="-99.94161705220391"></trkpt>
      <trkpt lat="25.14568720147497" lon="-99.94161115384107"></trkpt>
      <trkpt lat="25.145684326987826" lon="-99.94160519385531"></trkpt>
      <trkpt lat="25.14568137854191" lon="-99.94159921985025"></trkpt>
      <trkpt lat="25.14567835990797" lon="-99.94159324931537"></trkpt>
      <trkpt lat="25.14567527485678" lon="-99.94158729974014"></trkpt>
      <trkpt lat="25.145672127159102" lon="-99.94158138861397"></trkpt>
      <trkpt lat="25.1456689205857" lon="-99.94157553342637"></trkpt>
      <trkpt lat="25.145665658907323" lon="-99.94156975166682"></trkpt>
      <trkpt lat="25.14566234589475" lon="-99.94156406082475"></trkpt>
      <trkpt lat="25.14565898531873" lon="-99.94155847838964"></trkpt>
      <trkpt lat="25.14565558095003" lon="-99.94155302185094"></trkpt>
      <trkpt lat="25.14565213655941" lon="-99.94154770869812"></trkpt>
      <trkpt lat="25.145648655917643" lon="-99.94154255642066"></trkpt>
      <trkpt lat="25.145645142795473" lon="-99.94153758250799"></trkpt>
      <trkpt lat="25.145641600963682" lon="-99.94153280444961"></trkpt>
      <trkpt lat="25.145638034193013" lon="-99.94152823973496"></trkpt>
      <trkpt lat="25.14563444625424" lon="-99.94152390585351"></trkpt>
      <trkpt lat="25.145630840918123" lon="-99.94151982029473"></trkpt>
      <trkpt lat="25.145627221955422" lon="-99.94151600054809"></trkpt>
      <trkpt lat="25.145623593136904" lon="-99.94151246410303"></trkpt>
      <trkpt lat="25.145619958233326" lon="-99.94150922844905"></trkpt>
      <trkpt lat="25.145616321015453" lon="-99.94150631107559"></trkpt>
      <trkpt lat="25.145612685254044" lon="-99.94150372947209"></trkpt>
      <trkpt lat="25.145609054719866" lon="-99.94150150112807"></trkpt>
      <trkpt lat="25.145605433183675" lon="-99.94149964353295"></trkpt>
      <trkpt lat="25.14560182441624" lon="-99.94149817417623"></trkpt>
      <trkpt lat="25.145598232188316" lon="-99.94149711054733"></trkpt>
      <trkpt lat="25.145594660270675" lon="-99.94149647013576"></trkpt>
      <trkpt lat="25.145591112434065" lon="-99.94149627043093"></trkpt>
      <trkpt lat="25.145587592449264" lon="-99.94149652892236"></trkpt>
      <trkpt lat="25.14558410408702" lon="-99.94149726309948"></trkpt>
      <trkpt lat="25.145580572353772" lon="-99.94149842294864"></trkpt>
      <trkpt lat="25.145576927918942" lon="-99.94149994364355"></trkpt>
      <trkpt lat="25.145573183047777" lon="-99.94150182045473"></trkpt>
      <trkpt lat="25.145569350005534" lon="-99.94150404865273"></trkpt>
      <trkpt lat="25.145565441057474" lon="-99.94150662350808"></trkpt>
      <trkpt lat="25.14556146846885" lon="-99.9415095402913"></trkpt>
      <trkpt lat="25.145557444504906" lon="-99.94151279427292"></trkpt>
      <trkpt lat="25.145553381430904" lon="-99.94151638072347"></trkpt>
      <trkpt lat="25.145549291512097" lon="-99.94152029491349"></trkpt>
      <trkpt lat="25.145545187013745" lon="-99.94152453211348"></trkpt>
      <trkpt lat="25.14554108020109" lon="-99.941529087594"></trkpt>
      <trkpt lat="25.145536983339397" lon="-99.94153395662559"></trkpt>
      <trkpt lat="25.145532908693916" lon="-99.94153913447875"></trkpt>
      <trkpt lat="25.145528868529905" lon="-99.94154461642404"></trkpt>
      <trkpt lat="25.145524875112613" lon="-99.94155039773197"></trkpt>
      <trkpt lat="25.145520940707296" lon="-99.94155647367306"></trkpt>
      <trkpt lat="25.14551707757921" lon="-99.94156283951787"></trkpt>
      <trkpt lat="25.145513297993606" lon="-99.94156949053692"></trkpt>
      <trkpt lat="25.14550961421574" lon="-99.94157642200072"></trkpt>
      <trkpt lat="25.145506038510863" lon="-99.94158362917983"></trkpt>
      <trkpt lat="25.14550258314424" lon="-99.94159110734475"></trkpt>
      <trkpt lat="25.14549926038111" lon="-99.94159885176603"></trkpt>
      <trkpt lat="25.145496082486737" lon="-99.9416068577142"></trkpt>
      <trkpt lat="25.145493061726373" lon="-99.9416151204598"></trkpt>
      <trkpt lat="25.145490210365278" lon="-99.94162363527333"></trkpt>
      <trkpt lat="25.1454875406687" lon="-99.94163239742537"></trkpt>
      <trkpt lat="25.14548506490189" lon="-99.94164140218639"></trkpt>
      <trkpt lat="25.145482795330107" lon="-99.94165064482695"></trkpt>
      <trkpt lat="25.14548074421861" lon="-99.94166012061758"></trkpt>
      <trkpt lat="25.14547892383264" lon="-99.9416698248288"></trkpt>
      <trkpt lat="25.1454772976357" lon="-99.94168001093514"></trkpt>
      <trkpt lat="25.145475818904956" lon="-99.94169090332022"></trkpt>
      <trkpt lat="25.1454744846262" lon="-99.94170245361813"></trkpt>
      <trkpt lat="25.14547329178521" lon="-99.941714613463"></trkpt>
      <trkpt lat="25.14547223736776" lon="-99.94172733448896"></trkpt>
      <trkpt lat="25.145471318359647" lon="-99.94174056833013"></trkpt>
      <trkpt lat="25.145470531746646" lon="-99.94175426662063"></trkpt>
      <trkpt lat="25.14546987451455" lon="-99.94176838099457"></trkpt>
      <trkpt lat="25.14546934364913" lon="-99.9417828630861"></trkpt>
      <trkpt lat="25.145468936136172" lon="-99.94179766452935"></trkpt>
      <trkpt lat="25.14546864896146" lon="-99.9418127369584"></trkpt>
      <trkpt lat="25.145468479110782" lon="-99.94182803200742"></trkpt>
      <trkpt lat="25.145468423569916" lon="-99.9418435013105"></trkpt>
      <trkpt lat="25.145468479324645" lon="-99.94185909650179"></trkpt>
      <trkpt lat="25.145468643360747" lon="-99.9418747692154"></trkpt>
      <trkpt lat="25.145468912664015" lon="-99.94189047108544"></trkpt>
      <trkpt lat="25.145469284220226" lon="-99.94190615374606"></trkpt>
      <trkpt lat="25.145469755015167" lon="-99.94192176883136"></trkpt>
      <trkpt lat="25.14547032203462" lon="-99.94193726797549"></trkpt>
      <trkpt lat="25.14547098226436" lon="-99.94195260281255"></trkpt>
      <trkpt lat="25.14547173269018" lon="-99.94196772497666"></trkpt>
      <trkpt lat="25.14547257029786" lon="-99.94198258610199"></trkpt>
      <trkpt lat="25.14547349207318" lon="-99.9419971378226"></trkpt>
      <trkpt lat="25.145474495001924" lon="-99.94201133177265"></trkpt>
      <trkpt lat="25.14547557606988" lon="-99.94202511958628"></trkpt>
      <trkpt lat="25.145476732262825" lon="-99.94203845289755"></trkpt>
      <trkpt lat="25.14547796056654" lon="-99.94205128334063"></trkpt>
      <trkpt lat="25.145479257966823" lon="-99.94206356254966"></trkpt>
      <trkpt lat="25.145480621449437" lon="-99.94207524215872"></trkpt>
      <trkpt lat="25.145482048000176" lon="-99.94208627380199"></trkpt>
      <trkpt lat="25.145483558979787" lon="-99.94209666300277"></trkpt>
      <trkpt lat="25.145485176544504" lon="-99.94210647456298"></trkpt>
      <trkpt lat="25.145486898873315" lon="-99.94211574903461"></trkpt>
      <trkpt lat="25.14548872414522" lon="-99.94212452696961"></trkpt>
      <trkpt lat="25.145490650539216" lon="-99.94213284891988"></trkpt>
      <trkpt lat="25.145492676234305" lon="-99.94214075543748"></trkpt>
      <trkpt lat="25.145494799409484" lon="-99.94214828707429"></trkpt>
      <trkpt lat="25.14549701824374" lon="-99.94215548438228"></trkpt>
      <trkpt lat="25.14549933091608" lon="-99.94216238791343"></trkpt>
      <trkpt lat="25.145501735605507" lon="-99.94216903821969"></trkpt>
      <trkpt lat="25.145504230491003" lon="-99.942175475853"></trkpt>
      <trkpt lat="25.145506813751574" lon="-99.94218174136533"></trkpt>
      <trkpt lat="25.14550948356621" lon="-99.94218787530865"></trkpt>
      <trkpt lat="25.145512238113923" lon="-99.94219391823489"></trkpt>
      <trkpt lat="25.145515075573698" lon="-99.94219991069602"></trkpt>
      <trkpt lat="25.145517994124535" lon="-99.94220589324401"></trkpt>
      <trkpt lat="25.145520991945432" lon="-99.94221190643081"></trkpt>
      <trkpt lat="25.145524067215387" lon="-99.94221799080837"></trkpt>
      <trkpt lat="25.1455272181134" lon="-99.94222418692864"></trkpt>
      <trkpt lat="25.14553044281846" lon="-99.94223053534361"></trkpt>
      <trkpt lat="25.14553373950957" lon="-99.9422370766052"></trkpt>
      <trkpt lat="25.14553710636573" lon="-99.9422438512654"></trkpt>
      <trkpt lat="25.145540541565936" lon="-99.94225089987614"></trkpt>
      <trkpt lat="25.145544043289174" lon="-99.94225826298938"></trkpt>
      <trkpt lat="25.145547609714455" lon="-99.94226598115712"></trkpt>
      <trkpt lat="25.145551239020776" lon="-99.94227409493126"></trkpt>
      <trkpt lat="25.145554929387128" lon="-99.94228264486378"></trkpt>
      <trkpt lat="25.145558678992508" lon="-99.94229167150665"></trkpt>
      <trkpt lat="25.145562486015915" lon="-99.94230121541182"></trkpt>
      <trkpt lat="25.145566348636358" lon="-99.94231131713121"></trkpt>
      <trkpt lat="25.14557036090444" lon="-99.94232189539187"></trkpt>
      <trkpt lat="25.145574606158856" lon="-99.9423328297905"></trkpt>
      <trkpt lat="25.145579066510678" lon="-99.94234410218358"></trkpt>
      <trkpt lat="25.14558372407098" lon="-99.94235569442768"></trkpt>
      <trkpt lat="25.145588560950863" lon="-99.94236758837926"></trkpt>
      <trkpt lat="25.14559355926139" lon="-99.94237976589488"></trkpt>
      <trkpt lat="25.145598701113645" lon="-99.94239220883107"></trkpt>
      <trkpt lat="25.14560396861871" lon="-99.94240489904432"></trkpt>
      <trkpt lat="25.14560934388766" lon="-99.94241781839118"></trkpt>
      <trkpt lat="25.145614809031585" lon="-99.94243094872816"></trkpt>
      <trkpt lat="25.145620346161557" lon="-99.94244427191177"></trkpt>
      <trkpt lat="25.145625937388655" lon="-99.94245776979854"></trkpt>
      <trkpt lat="25.145631564823965" lon="-99.94247142424497"></trkpt>
      <trkpt lat="25.14563721057857" lon="-99.94248521710762"></trkpt>
      <trkpt lat="25.14564285676354" lon="-99.94249913024296"></trkpt>
      <trkpt lat="25.145648485489964" lon="-99.94251314550758"></trkpt>
      <trkpt lat="25.145654078868915" lon="-99.94252724475794"></trkpt>
      <trkpt lat="25.14565961901148" lon="-99.94254140985059"></trkpt>
      <trkpt lat="25.14566508802873" lon="-99.94255562264205"></trkpt>
      <trkpt lat="25.145670468031753" lon="-99.9425698649888"></trkpt>
      <trkpt lat="25.14567574113163" lon="-99.94258411874742"></trkpt>
      <trkpt lat="25.145680889439436" lon="-99.94259836577439"></trkpt>
      <trkpt lat="25.14568589506625" lon="-99.94261258792626"></trkpt>
      <trkpt lat="25.145690740123158" lon="-99.94262676705952"></trkpt>
      <trkpt lat="25.14569540672124" lon="-99.94264088503071"></trkpt>
      <trkpt lat="25.14569987697157" lon="-99.94265492369635"></trkpt>
      <trkpt lat="25.145704132985234" lon="-99.94266886491296"></trkpt>
      <trkpt lat="25.14570815687331" lon="-99.94268269053705"></trkpt>
      <trkpt lat="25.145711930746877" lon="-99.94269638242514"></trkpt>
      <trkpt lat="25.145715436717012" lon="-99.94270992243375"></trkpt>
      <trkpt lat="25.145718689985085" lon="-99.94272341104919"></trkpt>
      <trkpt lat="25.145721725862657" lon="-99.94273695742045"></trkpt>
      <trkpt lat="25.145724556626096" lon="-99.94275055639822"></trkpt>
      <trkpt lat="25.145727194551778" lon="-99.94276420283316"></trkpt>
      <trkpt lat="25.14572965191607" lon="-99.94277789157594"></trkpt>
      <trkpt lat="25.145731940995354" lon="-99.94279161747723"></trkpt>
      <trkpt lat="25.145734074065995" lon="-99.9428053753877"></trkpt>
      <trkpt lat="25.145736063404367" lon="-99.942819160158"></trkpt>
      <trkpt lat="25.145737921286845" lon="-99.94283296663883"></trkpt>
      <trkpt lat="25.145739659989804" lon="-99.9428467896808"></trkpt>
      <trkpt lat="25.14574129178961" lon="-99.94286062413464"></trkpt>
      <trkpt lat="25.14574282896264" lon="-99.94287446485099"></trkpt>
      <trkpt lat="25.145744283785266" lon="-99.94288830668052"></trkpt>
      <trkpt lat="25.145745668533863" lon="-99.94290214447386"></trkpt>
      <trkpt lat="25.145746995484807" lon="-99.94291597308175"></trkpt>
      <trkpt lat="25.145748276914457" lon="-99.94292978735481"></trkpt>
      <trkpt lat="25.145749525099202" lon="-99.94294358214371"></trkpt>
      <trkpt lat="25.145750752315404" lon="-99.94295735229913"></trkpt>
      <trkpt lat="25.14575197083944" lon="-99.94297109267173"></trkpt>
      <trkpt lat="25.145753192947684" lon="-99.94298479811218"></trkpt>
      <trkpt lat="25.145754430916508" lon="-99.94299846347114"></trkpt>
      <trkpt lat="25.14575569702228" lon="-99.9430120835993"></trkpt>
      <trkpt lat="25.14575700354138" lon="-99.94302565334729"></trkpt>
      <trkpt lat="25.145758362750183" lon="-99.94303916756581"></trkpt>
      <trkpt lat="25.145759786925048" lon="-99.9430526211055"></trkpt>
      <trkpt lat="25.145761288342364" lon="-99.94306600881706"></trkpt>
      <trkpt lat="25.145762879278493" lon="-99.94307932555112"></trkpt>
      <trkpt lat="25.14576457200981" lon="-99.9430925661584"></trkpt>
      <trkpt lat="25.145766378812695" lon="-99.9431057254895"></trkpt>
      <trkpt lat="25.145768311963508" lon="-99.94311879839518"></trkpt>
      <trkpt lat="25.145770401935767" lon="-99.94313177065341"></trkpt>
      <trkpt lat="25.145772659760105" lon="-99.94314463639626"></trkpt>
      <trkpt lat="25.145775068548573" lon="-99.94315740300523"></trkpt>
      <trkpt lat="25.145777611413234" lon="-99.9431700778619"></trkpt>
      <trkpt lat="25.145780271466133" lon="-99.9431826683478"></trkpt>
      <trkpt lat="25.145783031819338" lon="-99.9431951818445"></trkpt>
      <trkpt lat="25.145785875584895" lon="-99.9432076257335"></trkpt>
      <trkpt lat="25.145788785874863" lon="-99.9432200073964"></trkpt>
      <trkpt lat="25.1457917458013" lon="-99.94323233421473"></trkpt>
      <trkpt lat="25.145794738476262" lon="-99.94324461357002"></trkpt>
      <trkpt lat="25.1457977470118" lon="-99.94325685284382"></trkpt>
      <trkpt lat="25.14580075451998" lon="-99.94326905941767"></trkpt>
      <trkpt lat="25.145803744112843" lon="-99.94328124067316"></trkpt>
      <trkpt lat="25.145806698902458" lon="-99.94329340399179"></trkpt>
      <trkpt lat="25.145809602000874" lon="-99.94330555675512"></trkpt>
      <trkpt lat="25.14581243652015" lon="-99.94331770634471"></trkpt>
      <trkpt lat="25.14581518557234" lon="-99.94332986014209"></trkpt>
      <trkpt lat="25.145817832269497" lon="-99.9433420255288"></trkpt>
      <trkpt lat="25.145820359723686" lon="-99.94335420988641"></trkpt>
      <trkpt lat="25.145822751046953" lon="-99.94336642059646"></trkpt>
      <trkpt lat="25.14582498935136" lon="-99.94337866504047"></trkpt>
      <trkpt lat="25.145827057748964" lon="-99.94339095060003"></trkpt>
      <trkpt lat="25.145828939351816" lon="-99.94340328465667"></trkpt>
      <trkpt lat="25.14583061727197" lon="-99.9434156745919"></trkpt>
      <trkpt lat="25.14583207462149" lon="-99.94342812778731"></trkpt>
      <trkpt lat="25.14583329451243" lon="-99.94344065162444"></trkpt>
      <trkpt lat="25.145834260056837" lon="-99.94345325348483"></trkpt>
      <trkpt lat="25.145834954366777" lon="-99.94346594075003"></trkpt>
      <trkpt lat="25.1458353605543" lon="-99.94347872080158"></trkpt>
      <trkpt lat="25.145835461731465" lon="-99.94349160102102"></trkpt>
      <trkpt lat="25.145835204602452" lon="-99.94350460497535"></trkpt>
      <trkpt lat="25.145834564186927" lon="-99.94351774381761"></trkpt>
      <trkpt lat="25.145833566070195" lon="-99.94353100630846"></trkpt>
      <trkpt lat="25.145832235837535" lon="-99.9435443812086"></trkpt>
      <trkpt lat="25.145830599074255" lon="-99.94355785727868"></trkpt>
      <trkpt lat="25.14582868136564" lon="-99.9435714232794"></trkpt>
      <trkpt lat="25.145826508296988" lon="-99.94358506797138"></trkpt>
      <trkpt lat="25.145824105453595" lon="-99.94359878011534"></trkpt>
      <trkpt lat="25.14582149842075" lon="-99.94361254847195"></trkpt>
      <trkpt lat="25.145818712783747" lon="-99.94362636180185"></trkpt>
      <trkpt lat="25.145815774127882" lon="-99.94364020886574"></trkpt>
      <trkpt lat="25.145812708038452" lon="-99.94365407842429"></trkpt>
      <trkpt lat="25.14580954010075" lon="-99.94366795923816"></trkpt>
      <trkpt lat="25.145806295900062" lon="-99.94368184006802"></trkpt>
      <trkpt lat="25.145803001021694" lon="-99.94369570967456"></trkpt>
      <trkpt lat="25.14579968105093" lon="-99.94370955681845"></trkpt>
      <trkpt lat="25.145796361573073" lon="-99.94372337026033"></trkpt>
      <trkpt lat="25.14579306817341" lon="-99.94373713876092"></trkpt>
      <trkpt lat="25.145789826437237" lon="-99.94375085108084"></trkpt>
      <trkpt lat="25.145786661949845" lon="-99.94376449598083"></trkpt>
      <trkpt lat="25.145783600296536" lon="-99.94377806222148"></trkpt>
      <trkpt lat="25.145780667062596" lon="-99.94379153856354"></trkpt>
      <trkpt lat="25.145777887833326" lon="-99.94380491376764"></trkpt>
      <trkpt lat="25.145775288194017" lon="-99.94381817659443"></trkpt>
      <trkpt lat="25.14577289372996" lon="-99.94383131580464"></trkpt>
      <trkpt lat="25.14577073002645" lon="-99.9438443201589"></trkpt>
      <trkpt lat="25.14576882266878" lon="-99.94385717841791"></trkpt>
      <trkpt lat="25.145767197242254" lon="-99.94386987934233"></trkpt>
      <trkpt lat="25.145765879332156" lon="-99.94388241169283"></trkpt>
      <trkpt lat="25.14576489452378" lon="-99.94389476423007"></trkpt>
      <trkpt lat="25.145764146848478" lon="-99.94390686583375"></trkpt>
      <trkpt lat="25.145763521813603" lon="-99.94391866914549"></trkpt>
      <trkpt lat="25.14576301721844" lon="-99.94393019856895"></trkpt>
      <trkpt lat="25.14576263086229" lon="-99.94394147850772"></trkpt>
      <trkpt lat="25.145762360544452" lon="-99.94395253336546"></trkpt>
      <trkpt lat="25.145762204064216" lon="-99.94396338754575"></trkpt>
      <trkpt lat="25.145762159220872" lon="-99.94397406545227"></trkpt>
      <trkpt lat="25.14576222381373" lon="-99.94398459148859"></trkpt>
      <trkpt lat="25.145762395642073" lon="-99.94399499005839"></trkpt>
      <trkpt lat="25.1457626725052" lon="-99.94400528556527"></trkpt>
      <trkpt lat="25.1457630522024" lon="-99.94401550241282"></trkpt>
      <trkpt lat="25.14576353253298" lon="-99.94402566500473"></trkpt>
      <trkpt lat="25.145764111296227" lon="-99.94403579774456"></trkpt>
      <trkpt lat="25.145764786291437" lon="-99.94404592503601"></trkpt>
      <trkpt lat="25.145765555317904" lon="-99.94405607128263"></trkpt>
      <trkpt lat="25.145766416174926" lon="-99.9440662608881"></trkpt>
      <trkpt lat="25.145767366661797" lon="-99.944076518256"></trkpt>
      <trkpt lat="25.14576840457781" lon="-99.94408686779"></trkpt>
      <trkpt lat="25.145769527722265" lon="-99.9440973338937"></trkpt>
      <trkpt lat="25.14577073389445" lon="-99.94410794097071"></trkpt>
      <trkpt lat="25.14577202089367" lon="-99.94411871342471"></trkpt>
      <trkpt lat="25.145773386519213" lon="-99.94412967565927"></trkpt>
      <trkpt lat="25.14577482857037" lon="-99.94414085207804"></trkpt>
      <trkpt lat="25.14577634484644" lon="-99.94415226708462"></trkpt>
      <trkpt lat="25.145777933146725" lon="-99.94416394508266"></trkpt>
      <trkpt lat="25.14577959127051" lon="-99.94417591047579"></trkpt>
      <trkpt lat="25.1457813170171" lon="-99.94418818766763"></trkpt>
      <trkpt lat="25.14578310818578" lon="-99.9442008010618"></trkpt>
      <trkpt lat="25.14578496257585" lon="-99.94421377506191"></trkpt>
      <trkpt lat="25.145786877986602" lon="-99.94422713407164"></trkpt>
      <trkpt lat="25.14578887489986" lon="-99.94424086428378"></trkpt>
      <trkpt lat="25.14579097370429" lon="-99.94425492350153"></trkpt>
      <trkpt lat="25.14579317205941" lon="-99.94426929354391"></trkpt>
      <trkpt lat="25.145795467624776" lon="-99.94428395622997"></trkpt>
      <trkpt lat="25.14579785805993" lon="-99.94429889337871"></trkpt>
      <trkpt lat="25.145800341024405" lon="-99.94431408680924"></trkpt>
      <trkpt lat="25.145802914177743" lon="-99.94432951834055"></trkpt>
      <trkpt lat="25.145805575179487" lon="-99.9443451697917"></trkpt>
      <trkpt lat="25.145808321689184" lon="-99.94436102298172"></trkpt>
      <trkpt lat="25.145811151366363" lon="-99.94437705972965"></trkpt>
      <trkpt lat="25.145814061870574" lon="-99.94439326185454"></trkpt>
      <trkpt lat="25.145817050861353" lon="-99.94440961117542"></trkpt>
      <trkpt lat="25.145820115998248" lon="-99.94442608951132"></trkpt>
      <trkpt lat="25.145823254940787" lon="-99.94444267868131"></trkpt>
      <trkpt lat="25.14582646534852" lon="-99.94445936050442"></trkpt>
      <trkpt lat="25.145829744880995" lon="-99.94447611679968"></trkpt>
      <trkpt lat="25.145833091197733" lon="-99.94449292938613"></trkpt>
      <trkpt lat="25.145836501958293" lon="-99.94450978008283"></trkpt>
      <trkpt lat="25.145839974822206" lon="-99.9445266507088"></trkpt>
      <trkpt lat="25.145843507449023" lon="-99.94454352308307"></trkpt>
      <trkpt lat="25.145847097498272" lon="-99.94456037902472"></trkpt>
      <trkpt lat="25.1458507426295" lon="-99.94457720035275"></trkpt>
      <trkpt lat="25.145854440502248" lon="-99.94459396888624"></trkpt>
      <trkpt lat="25.145858188776057" lon="-99.94461066644419"></trkpt>
      <trkpt lat="25.145861985110468" lon="-99.94462727484564"></trkpt>
      <trkpt lat="25.145865827165018" lon="-99.94464377590967"></trkpt>
      <trkpt lat="25.14586971259926" lon="-99.94466015145528"></trkpt>
      <trkpt lat="25.14587363907272" lon="-99.94467638330156"></trkpt>
      <trkpt lat="25.145877604244944" lon="-99.94469245326748"></trkpt>
      <trkpt lat="25.14588160577549" lon="-99.94470834317215"></trkpt>
      <trkpt lat="25.145885706165632" lon="-99.9447242099244"></trkpt>
      <trkpt lat="25.145889962201203" lon="-99.94474021136"></trkpt>
      <trkpt lat="25.145894362968548" lon="-99.94475633068828"></trkpt>
      <trkpt lat="25.14589889755399" lon="-99.94477255111856"></trkpt>
      <trkpt lat="25.145903555043873" lon="-99.9447888558602"></trkpt>
      <trkpt lat="25.14590832452452" lon="-99.94480522812249"></trkpt>
      <trkpt lat="25.145913195082276" lon="-99.94482165111484"></trkpt>
      <trkpt lat="25.145918155803468" lon="-99.94483810804651"></trkpt>
      <trkpt lat="25.145923195774426" lon="-99.9448545821269"></trkpt>
      <trkpt lat="25.14592830408149" lon="-99.94487105656528"></trkpt>
      <trkpt lat="25.145933469810995" lon="-99.94488751457102"></trkpt>
      <trkpt lat="25.145938682049273" lon="-99.94490393935345"></trkpt>
      <trkpt lat="25.145943929882648" lon="-99.94492031412192"></trkpt>
      <trkpt lat="25.14594920239747" lon="-99.94493662208575"></trkpt>
      <trkpt lat="25.145954488680065" lon="-99.94495284645426"></trkpt>
      <trkpt lat="25.145959777816767" lon="-99.94496897043682"></trkpt>
      <trkpt lat="25.145965058893907" lon="-99.94498497724273"></trkpt>
      <trkpt lat="25.145970320997822" lon="-99.94500085008136"></trkpt>
      <trkpt lat="25.145975553214846" lon="-99.94501657216199"></trkpt>
      <trkpt lat="25.145980744631306" lon="-99.94503212669402"></trkpt>
      <trkpt lat="25.145985884333545" lon="-99.94504749688674"></trkpt>
      <trkpt lat="25.145990961407893" lon="-99.94506266594951"></trkpt>
      <trkpt lat="25.145995964940685" lon="-99.94507761709167"></trkpt>
      <trkpt lat="25.146000884018253" lon="-99.94509233352251"></trkpt>
      <trkpt lat="25.14600570772693" lon="-99.9451067984514"></trkpt>
      <trkpt lat="25.146010425153055" lon="-99.94512099508769"></trkpt>
      <trkpt lat="25.146015025382955" lon="-99.94513490664069"></trkpt>
      <trkpt lat="25.146019497502966" lon="-99.94514851631973"></trkpt>
      <trkpt lat="25.14602383059942" lon="-99.94516180733415"></trkpt>
      <trkpt lat="25.146028013758652" lon="-99.94517476289327"></trkpt>
      <trkpt lat="25.146032089838066" lon="-99.94518727134813"></trkpt>
      <trkpt lat="25.146036109331686" lon="-99.94519925729315"></trkpt>
      <trkpt lat="25.146040072780806" lon="-99.94521075830282"></trkpt>
      <trkpt lat="25.146043980726706" lon="-99.94522181195168"></trkpt>
      <trkpt lat="25.146047833710668" lon="-99.94523245581419"></trkpt>
      <trkpt lat="25.14605163227398" lon="-99.94524272746492"></trkpt>
      <trkpt lat="25.146055376957932" lon="-99.9452526644783"></trkpt>
      <trkpt lat="25.146059068303803" lon="-99.94526230442887"></trkpt>
      <trkpt lat="25.146062706852874" lon="-99.94527168489114"></trkpt>
      <trkpt lat="25.14606629314644" lon="-99.94528084343962"></trkpt>
      <trkpt lat="25.146069827725782" lon="-99.94528981764878"></trkpt>
      <trkpt lat="25.146073311132184" lon="-99.94529864509317"></trkpt>
      <trkpt lat="25.146076743906928" lon="-99.94530736334725"></trkpt>
      <trkpt lat="25.146080126591308" lon="-99.9453160099856"></trkpt>
      <trkpt lat="25.146083459726597" lon="-99.94532462258266"></trkpt>
      <trkpt lat="25.146086743854088" lon="-99.94533323871293"></trkpt>
      <trkpt lat="25.146089979515068" lon="-99.94534189595093"></trkpt>
      <trkpt lat="25.146093167250818" lon="-99.94535063187121"></trkpt>
      <trkpt lat="25.146096307602622" lon="-99.9453594840482"></trkpt>
      <trkpt lat="25.146099401111762" lon="-99.94536849005647"></trkpt>
      <trkpt lat="25.146102448319535" lon="-99.94537768747048"></trkpt>
      <trkpt lat="25.146105449767216" lon="-99.94538711386475"></trkpt>
      <trkpt lat="25.146108405996088" lon="-99.9453968068138"></trkpt>
      <trkpt lat="25.146111317547447" lon="-99.94540680389214"></trkpt>
      <trkpt lat="25.14611418496257" lon="-99.94541714267422"></trkpt>
      <trkpt lat="25.146117008782745" lon="-99.94542786073461"></trkpt>
      <trkpt lat="25.146119789549253" lon="-99.94543899564778"></trkpt>
      <trkpt lat="25.146122527803385" lon="-99.94545058498822"></trkpt>
      <trkpt lat="25.14612522408642" lon="-99.94546266633051"></trkpt>
      <trkpt lat="25.146127878939637" lon="-99.94547527724906"></trkpt>
      <trkpt lat="25.146130321501545" lon="-99.94548859516136"></trkpt>
      <trkpt lat="25.1461324038058" lon="-99.94550272636923"></trkpt>
      <trkpt lat="25.14613416073643" lon="-99.94551760177382"></trkpt>
      <trkpt lat="25.14613562717747" lon="-99.94553315227624"></trkpt>
      <trkpt lat="25.14613683801294" lon="-99.94554930877764"></trkpt>
      <trkpt lat="25.146137828126882" lon="-99.94556600217915"></trkpt>
      <trkpt lat="25.146138632403325" lon="-99.94558316338185"></trkpt>
      <trkpt lat="25.1461392857263" lon="-99.94560072328696"></trkpt>
      <trkpt lat="25.146139822979837" lon="-99.94561861279556"></trkpt>
      <trkpt lat="25.14614027904797" lon="-99.94563676280876"></trkpt>
      <trkpt lat="25.146140688814725" lon="-99.94565510422773"></trkpt>
      <trkpt lat="25.14614108716414" lon="-99.94567356795359"></trkpt>
      <trkpt lat="25.14614150898024" lon="-99.94569208488747"></trkpt>
      <trkpt lat="25.146141989147065" lon="-99.9457105859305"></trkpt>
      <trkpt lat="25.146142562548633" lon="-99.94572900198382"></trkpt>
      <trkpt lat="25.146143264068986" lon="-99.94574726394856"></trkpt>
      <trkpt lat="25.146144128592155" lon="-99.94576530272583"></trkpt>
      <trkpt lat="25.146145191002166" lon="-99.94578304921676"></trkpt>
      <trkpt lat="25.146146486183056" lon="-99.94580043432252"></trkpt>
      <trkpt lat="25.146148049018848" lon="-99.9458173889442"></trkpt>
      <trkpt lat="25.146149914393586" lon="-99.94583384398298"></trkpt>
      <trkpt lat="25.146152117191285" lon="-99.94584973033994"></trkpt>
      <trkpt lat="25.14615469229599" lon="-99.94586497891623"></trkpt>
      <trkpt lat="25.146157674591723" lon="-99.94587952061298"></trkpt>
      <trkpt lat="25.14616109896253" lon="-99.94589328633133"></trkpt>
      <trkpt lat="25.14616500029242" lon="-99.94590620697238"></trkpt>
      <trkpt lat="25.146169413465444" lon="-99.94591821343732"></trkpt>
      <trkpt lat="25.14617437336562" lon="-99.94592923662725"></trkpt>
      <trkpt lat="25.146179914876996" lon="-99.94593920744327"></trkpt>
      <trkpt lat="25.14618607288358" lon="-99.94594805678655"></trkpt>
      <trkpt lat="25.146193026805726" lon="-99.94595572131396"></trkpt>
      <trkpt lat="25.146200888011816" lon="-99.94596223219729"></trkpt>
      <trkpt lat="25.146209589307965" lon="-99.94596766211"></trkpt>
      <trkpt lat="25.14621906350027" lon="-99.94597208372551"></trkpt>
      <trkpt lat="25.14622924339486" lon="-99.94597556971733"></trkpt>
      <trkpt lat="25.146240061797837" lon="-99.9459781927589"></trkpt>
      <trkpt lat="25.146251451515308" lon="-99.94598002552371"></trkpt>
      <trkpt lat="25.14626334535339" lon="-99.94598114068519"></trkpt>
      <trkpt lat="25.146275676118186" lon="-99.9459816109168"></trkpt>
      <trkpt lat="25.14628837661581" lon="-99.94598150889205"></trkpt>
      <trkpt lat="25.146301379652378" lon="-99.94598090728434"></trkpt>
      <trkpt lat="25.146314618033987" lon="-99.94597987876718"></trkpt>
      <trkpt lat="25.14632802456676" lon="-99.94597849601399"></trkpt>
      <trkpt lat="25.146341532056802" lon="-99.94597683169827"></trkpt>
      <trkpt lat="25.146355073310225" lon="-99.94597495849348"></trkpt>
      <trkpt lat="25.14636858113314" lon="-99.94597294907305"></trkpt>
      <trkpt lat="25.14638198833165" lon="-99.94597087611048"></trkpt>
      <trkpt lat="25.146395227711874" lon="-99.9459688122792"></trkpt>
      <trkpt lat="25.146408232079914" lon="-99.9459668302527"></trkpt>
      <trkpt lat="25.146420934241892" lon="-99.94596500270444"></trkpt>
      <trkpt lat="25.14643326700391" lon="-99.94596340230784"></trkpt>
      <trkpt lat="25.146445163172082" lon="-99.94596210173643"></trkpt>
      <trkpt lat="25.146456555552515" lon="-99.94596117366362"></trkpt>
      <trkpt lat="25.146467376951325" lon="-99.94596069076289"></trkpt>
      <trkpt lat="25.146477560174613" lon="-99.9459607257077"></trkpt>
      <trkpt lat="25.146487038028496" lon="-99.94596135117152"></trkpt>
      <trkpt lat="25.14649574331908" lon="-99.94596263982781"></trkpt>
      <trkpt lat="25.14650360885248" lon="-99.94596466435003"></trkpt>
      <trkpt lat="25.146510567434806" lon="-99.94596749741163"></trkpt>
      <trkpt lat="25.146516551872168" lon="-99.94597121168611"></trkpt>
      <trkpt lat="25.146521611753315" lon="-99.9459753956844"></trkpt>
      <trkpt lat="25.146525873240275" lon="-99.94597960445925"></trkpt>
      <trkpt lat="25.146529383999074" lon="-99.94598386049678"></trkpt>
      <trkpt lat="25.146532191695737" lon="-99.94598818628313"></trkpt>
      <trkpt lat="25.146534343996287" lon="-99.94599260430441"></trkpt>
      <trkpt lat="25.146535888566756" lon="-99.94599713704676"></trkpt>
      <trkpt lat="25.146536873073163" lon="-99.94600180699629"></trkpt>
      <trkpt lat="25.14653734518153" lon="-99.94600663663914"></trkpt>
      <trkpt lat="25.146537352557896" lon="-99.94601164846146"></trkpt>
      <trkpt lat="25.146536942868277" lon="-99.94601686494931"></trkpt>
      <trkpt lat="25.1465361637787" lon="-99.94602230858887"></trkpt>
      <trkpt lat="25.146535062955188" lon="-99.94602800186625"></trkpt>
      <trkpt lat="25.146533688063773" lon="-99.94603396726757"></trkpt>
      <trkpt lat="25.146532086770474" lon="-99.94604022727896"></trkpt>
      <trkpt lat="25.14653030674132" lon="-99.94604680438653"></trkpt>
      <trkpt lat="25.14652839564233" lon="-99.94605372107645"></trkpt>
      <trkpt lat="25.14652640113954" lon="-99.9460609998348"></trkpt>
      <trkpt lat="25.146524370898966" lon="-99.94606866314773"></trkpt>
      <trkpt lat="25.146522352586636" lon="-99.94607673350133"></trkpt>
      <trkpt lat="25.14652039386858" lon="-99.9460852333818"></trkpt>
      <trkpt lat="25.14651854241082" lon="-99.9460941852752"></trkpt>
      <trkpt lat="25.146516845879383" lon="-99.94610361166765"></trkpt>
      <trkpt lat="25.146515351940288" lon="-99.94611353504534"></trkpt>
      <trkpt lat="25.146514108259566" lon="-99.94612397789433"></trkpt>
      <trkpt lat="25.146513162503243" lon="-99.94613496270078"></trkpt>
      <trkpt lat="25.146512562337346" lon="-99.94614651195081"></trkpt>
      <trkpt lat="25.146512355427895" lon="-99.94615864813056"></trkpt>
      <trkpt lat="25.146512589440917" lon="-99.94617139372612"></trkpt>
      <trkpt lat="25.14651331204244" lon="-99.94618477122363"></trkpt>
      <trkpt lat="25.14651457089849" lon="-99.94619880310927"></trkpt>
      <trkpt lat="25.146516168618646" lon="-99.94621371568489"></trkpt>
      <trkpt lat="25.146517875867147" lon="-99.94622967612457"></trkpt>
      <trkpt lat="25.146519692391976" lon="-99.94624661822263"></trkpt>
      <trkpt lat="25.146521617941143" lon="-99.94626447577342"></trkpt>
      <trkpt lat="25.146523652262633" lon="-99.94628318257126"></trkpt>
      <trkpt lat="25.146525795104445" lon="-99.94630267241043"></trkpt>
      <trkpt lat="25.146528046214573" lon="-99.94632287908529"></trkpt>
      <trkpt lat="25.14653040534101" lon="-99.9463437363901"></trkpt>
      <trkpt lat="25.146532872231756" lon="-99.94636517811925"></trkpt>
      <trkpt lat="25.146535446634804" lon="-99.94638713806701"></trkpt>
      <trkpt lat="25.146538128298147" lon="-99.94640955002774"></trkpt>
      <trkpt lat="25.146540916969776" lon="-99.94643234779572"></trkpt>
      <trkpt lat="25.146543812397702" lon="-99.94645546516533"></trkpt>
      <trkpt lat="25.1465468143299" lon="-99.94647883593082"></trkpt>
      <trkpt lat="25.146549922514378" lon="-99.94650239388653"></trkpt>
      <trkpt lat="25.146553136699126" lon="-99.9465260728268"></trkpt>
      <trkpt lat="25.146556456632137" lon="-99.94654980654595"></trkpt>
      <trkpt lat="25.146559882061414" lon="-99.94657352883826"></trkpt>
      <trkpt lat="25.146563412734942" lon="-99.94659717349809"></trkpt>
      <trkpt lat="25.146567048400723" lon="-99.94662067431975"></trkpt>
      <trkpt lat="25.146570788806752" lon="-99.94664396509756"></trkpt>
      <trkpt lat="25.14657463370102" lon="-99.94666697962585"></trkpt>
      <trkpt lat="25.146578582831527" lon="-99.9466896516989"></trkpt>
      <trkpt lat="25.146582635946263" lon="-99.94671191511107"></trkpt>
      <trkpt lat="25.146586792793226" lon="-99.94673370365665"></trkpt>
      <trkpt lat="25.14659105312041" lon="-99.94675495112999"></trkpt>
      <trkpt lat="25.14659541667581" lon="-99.94677559132539"></trkpt>
      <trkpt lat="25.146599883207422" lon="-99.94679555803717"></trkpt>
      <trkpt lat="25.14660445246324" lon="-99.94681478505966"></trkpt>
      <trkpt lat="25.146609124191258" lon="-99.94683320618716"></trkpt>
      <trkpt lat="25.14661392961415" lon="-99.94685100654799"></trkpt>
      <trkpt lat="25.146618895960856" lon="-99.94686842792184"></trkpt>
      <trkpt lat="25.146624016988746" lon="-99.94688548908019"></trkpt>
      <trkpt lat="25.146629286455205" lon="-99.94690220879446"></trkpt>
      <trkpt lat="25.146634698117627" lon="-99.94691860583613"></trkpt>
      <trkpt lat="25.14664024573338" lon="-99.94693469897668"></trkpt>
      <trkpt lat="25.146645923059854" lon="-99.94695050698752"></trkpt>
      <trkpt lat="25.146651723854422" lon="-99.94696604864016"></trkpt>
      <trkpt lat="25.146657641874476" lon="-99.94698134270602"></trkpt>
      <trkpt lat="25.146663670877395" lon="-99.94699640795656"></trkpt>
      <trkpt lat="25.146669804620558" lon="-99.94701126316326"></trkpt>
      <trkpt lat="25.146676036861347" lon="-99.94702592709754"></trkpt>
      <trkpt lat="25.146682361357154" lon="-99.94704041853092"></trkpt>
      <trkpt lat="25.14668877186535" lon="-99.94705475623479"></trkpt>
      <trkpt lat="25.146695262143318" lon="-99.94706895898065"></trkpt>
      <trkpt lat="25.146701825948444" lon="-99.94708304553994"></trkpt>
      <trkpt lat="25.146708457038102" lon="-99.94709703468413"></trkpt>
      <trkpt lat="25.14671514916969" lon="-99.94711094518468"></trkpt>
      <trkpt lat="25.146721896100573" lon="-99.94712479581302"></trkpt>
      <trkpt lat="25.146728691588144" lon="-99.94713860534064"></trkpt>
      <trkpt lat="25.146735529389783" lon="-99.94715239253898"></trkpt>
      <trkpt lat="25.14674240326287" lon="-99.94716617617951"></trkpt>
      <trkpt lat="25.146749306964786" lon="-99.94717997503369"></trkpt>
      <trkpt lat="25.146756234252916" lon="-99.94719380787296"></trkpt>
      <trkpt lat="25.14676317888464" lon="-99.9472076934688"></trkpt>
      <trkpt lat="25.14677013461734" lon="-99.94722165059264"></trkpt>
      <trkpt lat="25.146777095208396" lon="-99.94723569801594"></trkpt>
      <trkpt lat="25.146784054415196" lon="-99.94724985451019"></trkpt>
      <trkpt lat="25.14679100599512" lon="-99.94726413884682"></trkpt>
      <trkpt lat="25.146797943705547" lon="-99.94727856979733"></trkpt>
      <trkpt lat="25.146804847080695" lon="-99.9472930797291"></trkpt>
      <trkpt lat="25.14681170622711" lon="-99.94730758703572"></trkpt>
      <trkpt lat="25.146818530760648" lon="-99.94732208952784"></trkpt>
      <trkpt lat="25.14682533029718" lon="-99.94733658501612"></trkpt>
      <trkpt lat="25.146832114452582" lon="-99.9473510713112"></trkpt>
      <trkpt lat="25.14683889284271" lon="-99.94736554622376"></trkpt>
      <trkpt lat="25.146845675083433" lon="-99.94738000756442"></trkpt>
      <trkpt lat="25.146852470790627" lon="-99.94739445314386"></trkpt>
      <trkpt lat="25.14685928958015" lon="-99.94740888077271"></trkpt>
      <trkpt lat="25.14686614106787" lon="-99.94742328826163"></trkpt>
      <trkpt lat="25.14687303486966" lon="-99.94743767342128"></trkpt>
      <trkpt lat="25.146879980601387" lon="-99.9474520340623"></trkpt>
      <trkpt lat="25.146886987878908" lon="-99.94746636799536"></trkpt>
      <trkpt lat="25.1468940663181" lon="-99.94748067303111"></trkpt>
      <trkpt lat="25.146901225534826" lon="-99.9474949469802"></trkpt>
      <trkpt lat="25.14690847514496" lon="-99.94750918765325"></trkpt>
      <trkpt lat="25.146915824764356" lon="-99.94752339286097"></trkpt>
      <trkpt lat="25.146923284008896" lon="-99.94753756041399"></trkpt>
      <trkpt lat="25.146930862494433" lon="-99.94755168812294"></trkpt>
      <trkpt lat="25.14693856983685" lon="-99.9475657737985"></trkpt>
      <trkpt lat="25.146946415652003" lon="-99.94757981525132"></trkpt>
      <trkpt lat="25.146954409555757" lon="-99.94759381029203"></trkpt>
      <trkpt lat="25.14696256116399" lon="-99.94760775673132"></trkpt>
      <trkpt lat="25.14697088009256" lon="-99.94762165237981"></trkpt>
      <trkpt lat="25.14697937595734" lon="-99.94763549504816"></trkpt>
      <trkpt lat="25.14698805837419" lon="-99.94764928254703"></trkpt>
      <trkpt lat="25.14699693695899" lon="-99.94766301268709"></trkpt>
      <trkpt lat="25.14700602132759" lon="-99.94767668327896"></trkpt>
      <trkpt lat="25.14701532109587" lon="-99.9476902921333"></trkpt>
      <trkpt lat="25.147024845879702" lon="-99.94770383706076"></trkpt>
      <trkpt lat="25.147034780228378" lon="-99.94771773382716"></trkpt>
      <trkpt lat="25.147045271299206" lon="-99.94773234356907"></trkpt>
      <trkpt lat="25.14705627262002" lon="-99.94774758215337"></trkpt>
      <trkpt lat="25.147067737718668" lon="-99.94776336544692"></trkpt>
      <trkpt lat="25.147079620122994" lon="-99.94777960931657"></trkpt>
      <trkpt lat="25.147091873360843" lon="-99.94779622962916"></trkpt>
      <trkpt lat="25.147104450960054" lon="-99.94781314225159"></trkpt>
      <trkpt lat="25.147117306448475" lon="-99.94783026305068"></trkpt>
      <trkpt lat="25.14713039335394" lon="-99.9478475078933"></trkpt>
      <trkpt lat="25.14714366520431" lon="-99.94786479264633"></trkpt>
      <trkpt lat="25.147157075527414" lon="-99.94788203317661"></trkpt>
      <trkpt lat="25.147170577851103" lon="-99.947899145351"></trkpt>
      <trkpt lat="25.147184125703216" lon="-99.94791604503637"></trkpt>
      <trkpt lat="25.147197672611597" lon="-99.94793264809957"></trkpt>
      <trkpt lat="25.147211172104093" lon="-99.94794887040746"></trkpt>
      <trkpt lat="25.147224577708545" lon="-99.94796462782689"></trkpt>
      <trkpt lat="25.147237842952798" lon="-99.94797983622473"></trkpt>
      <trkpt lat="25.147250921364694" lon="-99.94799441146783"></trkpt>
      <trkpt lat="25.147263766472076" lon="-99.94800826942307"></trkpt>
      <trkpt lat="25.147276331802793" lon="-99.94802132595727"></trkpt>
      <trkpt lat="25.14728857088468" lon="-99.94803349693734"></trkpt>
      <trkpt lat="25.147300437245587" lon="-99.9480446982301"></trkpt>
      <trkpt lat="25.147311884413355" lon="-99.94805484570243"></trkpt>
      <trkpt lat="25.147322865915832" lon="-99.94806385522116"></trkpt>
      <trkpt lat="25.147333335280848" lon="-99.9480716426532"></trkpt>
      <trkpt lat="25.147343246036268" lon="-99.94807812386536"></trkpt>
      <trkpt lat="25.147352551709915" lon="-99.94808321472453"></trkpt>
      <trkpt lat="25.147361205829647" lon="-99.94808683109754"></trkpt>
      <trkpt lat="25.147369161923297" lon="-99.94808888885127"></trkpt>
      <trkpt lat="25.14737637351871" lon="-99.9480893038526"></trkpt>
      <trkpt lat="25.14738294976281" lon="-99.94808803839318"></trkpt>
      <trkpt lat="25.147389042437343" lon="-99.94808516440703"></trkpt>
      <trkpt lat="25.147394669022376" lon="-99.94808076222441"></trkpt>
      <trkpt lat="25.147399846998" lon="-99.94807491217563"></trkpt>
      <trkpt lat="25.147404593844307" lon="-99.94806769459097"></trkpt>
      <trkpt lat="25.14740892704137" lon="-99.94805918980073"></trkpt>
      <trkpt lat="25.147412864069274" lon="-99.94804947813518"></trkpt>
      <trkpt lat="25.147416422408103" lon="-99.9480386399246"></trkpt>
      <trkpt lat="25.147419619537935" lon="-99.9480267554993"></trkpt>
      <trkpt lat="25.147422472938867" lon="-99.94801390518955"></trkpt>
      <trkpt lat="25.147425000090966" lon="-99.94800016932567"></trkpt>
      <trkpt lat="25.147427218474323" lon="-99.94798562823789"></trkpt>
      <trkpt lat="25.147429145569028" lon="-99.94797036225654"></trkpt>
      <trkpt lat="25.14743079885515" lon="-99.9479544517119"></trkpt>
      <trkpt lat="25.147432195812783" lon="-99.94793797693424"></trkpt>
      <trkpt lat="25.147433353922008" lon="-99.94792101825385"></trkpt>
      <trkpt lat="25.1474342906629" lon="-99.94790365600105"></trkpt>
      <trkpt lat="25.147435023515555" lon="-99.94788597050609"></trkpt>
      <trkpt lat="25.147435569960045" lon="-99.94786804209926"></trkpt>
      <trkpt lat="25.14743594747646" lon="-99.94784995111087"></trkpt>
      <trkpt lat="25.147436173544882" lon="-99.94783177787119"></trkpt>
      <trkpt lat="25.147436265645396" lon="-99.94781360271053"></trkpt>
      <trkpt lat="25.147436241258077" lon="-99.94779550595912"></trkpt>
      <trkpt lat="25.14743611786302" lon="-99.94777756794731"></trkpt>
      <trkpt lat="25.1474359129403" lon="-99.94775986900537"></trkpt>
      <trkpt lat="25.147435643970006" lon="-99.94774248946355"></trkpt>
      <trkpt lat="25.14743532843221" lon="-99.9477255096522"></trkpt>
      <trkpt lat="25.147434983807003" lon="-99.94770900990154"></trkpt>
      <trkpt lat="25.147434627574476" lon="-99.94769307054193"></trkpt>
      <trkpt lat="25.147434277214696" lon="-99.94767777190363"></trkpt>
      <trkpt lat="25.147433813559115" lon="-99.94766273237664"></trkpt>
      <trkpt lat="25.147433112176802" lon="-99.94764752326655"></trkpt>
      <trkpt lat="25.147432182654278" lon="-99.94763215427692"></trkpt>
      <trkpt lat="25.147431034578076" lon="-99.94761663511126"></trkpt>
      <trkpt lat="25.14742967753472" lon="-99.94760097547307"></trkpt>
      <trkpt lat="25.147428121110742" lon="-99.94758518506595"></trkpt>
      <trkpt lat="25.147426374892653" lon="-99.9475692735934"></trkpt>
      <trkpt lat="25.147424448467" lon="-99.94755325075894"></trkpt>
      <trkpt lat="25.147422351420293" lon="-99.94753712626614"></trkpt>
      <trkpt lat="25.147420093339072" lon="-99.94752090981854"></trkpt>
      <trkpt lat="25.147417683809852" lon="-99.94750461111963"></trkpt>
      <trkpt lat="25.147415132419162" lon="-99.94748823987297"></trkpt>
      <trkpt lat="25.147412448753542" lon="-99.9474718057821"></trkpt>
      <trkpt lat="25.147409642399502" lon="-99.94745531855054"></trkpt>
      <trkpt lat="25.14740672294358" lon="-99.94743878788184"></trkpt>
      <trkpt lat="25.14740369997229" lon="-99.94742222347952"></trkpt>
      <trkpt lat="25.147400583072173" lon="-99.94740563504713"></trkpt>
      <trkpt lat="25.147397381829748" lon="-99.94738903228819"></trkpt>
      <trkpt lat="25.14739410583154" lon="-99.94737242490626"></trkpt>
      <trkpt lat="25.147390764664078" lon="-99.94735582260486"></trkpt>
      <trkpt lat="25.14738736791389" lon="-99.94733923508748"></trkpt>
      <trkpt lat="25.147383925167507" lon="-99.94732267205775"></trkpt>
      <trkpt lat="25.147380446011447" lon="-99.94730614321912"></trkpt>
      <trkpt lat="25.147376940032242" lon="-99.94728965827517"></trkpt>
      <trkpt lat="25.147373416816414" lon="-99.94727322692941"></trkpt>
      <trkpt lat="25.147369885950496" lon="-99.94725685888541"></trkpt>
      <trkpt lat="25.147366357021006" lon="-99.94724056384665"></trkpt>
      <trkpt lat="25.147362839614484" lon="-99.9472243515167"></trkpt>
      <trkpt lat="25.147359343317444" lon="-99.94720823159912"></trkpt>
      <trkpt lat="25.147355877716418" lon="-99.9471922137974"></trkpt>
      <trkpt lat="25.147352411354735" lon="-99.94717624978828"></trkpt>
      <trkpt lat="25.147348905214052" lon="-99.94716028586802"></trkpt>
      <trkpt lat="25.147345357538402" lon="-99.94714432366939"></trkpt>
      <trkpt lat="25.14734176657181" lon="-99.94712836482525"></trkpt>
      <trkpt lat="25.147338130558317" lon="-99.94711241096833"></trkpt>
      <trkpt lat="25.147334447741944" lon="-99.94709646373147"></trkpt>
      <trkpt lat="25.14733071636673" lon="-99.94708052474748"></trkpt>
      <trkpt lat="25.14732693467669" lon="-99.94706459564914"></trkpt>
      <trkpt lat="25.14732310091587" lon="-99.94704867806927"></trkpt>
      <trkpt lat="25.147319213328288" lon="-99.94703277364064"></trkpt>
      <trkpt lat="25.14731527015799" lon="-99.94701688399608"></trkpt>
      <trkpt lat="25.147311269648984" lon="-99.9470010107684"></trkpt>
      <trkpt lat="25.147307210045316" lon="-99.94698515559037"></trkpt>
      <trkpt lat="25.147303089591006" lon="-99.9469693200948"></trkpt>
      <trkpt lat="25.147298906530096" lon="-99.94695350591451"></trkpt>
      <trkpt lat="25.14729465910661" lon="-99.94693771468229"></trkpt>
      <trkpt lat="25.147290345564574" lon="-99.94692194803093"></trkpt>
      <trkpt lat="25.147285964148026" lon="-99.94690620759326"></trkpt>
      <trkpt lat="25.147281513100985" lon="-99.94689049500205"></trkpt>
      <trkpt lat="25.147276990667493" lon="-99.94687481189011"></trkpt>
      <trkpt lat="25.14727239509157" lon="-99.94685915989025"></trkpt>
      <trkpt lat="25.147267724617254" lon="-99.94684354063527"></trkpt>
      <trkpt lat="25.14726297748857" lon="-99.94682795575797"></trkpt>
      <trkpt lat="25.147258151949554" lon="-99.94681240689115"></trkpt>
      <trkpt lat="25.147253246244226" lon="-99.94679689566762"></trkpt>
      <trkpt lat="25.147248258616628" lon="-99.94678142372017"></trkpt>
      <trkpt lat="25.147243187310778" lon="-99.94676599268158"></trkpt>
      <trkpt lat="25.14723803057072" lon="-99.9467506041847"></trkpt>
      <trkpt lat="25.147232786640465" lon="-99.94673525986231"></trkpt>
      <trkpt lat="25.14722745376407" lon="-99.94671996134721"></trkpt>
      <trkpt lat="25.147222111144917" lon="-99.94670493874716"></trkpt>
      <trkpt lat="25.147216829241625" lon="-99.94669038840402"></trkpt>
      <trkpt lat="25.14721159318106" lon="-99.94667626130168"></trkpt>
      <trkpt lat="25.147206388090073" lon="-99.94666250842407"></trkpt>
      <trkpt lat="25.147201199095523" lon="-99.94664908075508"></trkpt>
      <trkpt lat="25.147196011324265" lon="-99.94663592927864"></trkpt>
      <trkpt lat="25.147190809903158" lon="-99.94662300497865"></trkpt>
      <trkpt lat="25.14718557995905" lon="-99.94661025883899"></trkpt>
      <trkpt lat="25.147180306618807" lon="-99.9465976418436"></trkpt>
      <trkpt lat="25.14717497500928" lon="-99.94658510497636"></trkpt>
      <trkpt lat="25.14716957025733" lon="-99.94657259922123"></trkpt>
      <trkpt lat="25.14716407748981" lon="-99.94656007556206"></trkpt>
      <trkpt lat="25.14715848183357" lon="-99.94654748498279"></trkpt>
      <trkpt lat="25.147152768415484" lon="-99.94653477846731"></trkpt>
      <trkpt lat="25.14714692236239" lon="-99.94652190699956"></trkpt>
      <trkpt lat="25.147140928801146" lon="-99.94650882156341"></trkpt>
      <trkpt lat="25.14713477285862" lon="-99.94649547314278"></trkpt>
      <trkpt lat="25.147128439661664" lon="-99.9464818127216"></trkpt>
      <trkpt lat="25.147121914337127" lon="-99.94646779128374"></trkpt>
      <trkpt lat="25.147115182011873" lon="-99.94645335981315"></trkpt>
      <trkpt lat="25.14710822781275" lon="-99.9464384692937"></trkpt>
      <trkpt lat="25.147101036866626" lon="-99.94642307070932"></trkpt>
      <trkpt lat="25.147093594300348" lon="-99.94640711504391"></trkpt>
      <trkpt lat="25.147085885240774" lon="-99.94639055328139"></trkpt>
      <trkpt lat="25.147077894814764" lon="-99.94637333640566"></trkpt>
      <trkpt lat="25.14706960814917" lon="-99.94635541540063"></trkpt>
      <trkpt lat="25.147061010370848" lon="-99.94633674125019"></trkpt>
      <trkpt lat="25.147052086606664" lon="-99.94631726493827"></trkpt>
      <trkpt lat="25.14704282198346" lon="-99.94629693744876"></trkpt>
      <trkpt lat="25.1470332016281" lon="-99.94627570976556"></trkpt>
      <trkpt lat="25.147022968713358" lon="-99.94625310379567"></trkpt>
      <trkpt lat="25.14701192029966" lon="-99.94622876823742"></trkpt>
      <trkpt lat="25.14700012234535" lon="-99.9462028442619"></trkpt>
      <trkpt lat="25.146987640808778" lon="-99.94617547304016"></trkpt>
      <trkpt lat="25.146974541648277" lon="-99.9461467957432"></trkpt>
      <trkpt lat="25.1469608908222" lon="-99.94611695354214"></trkpt>
      <trkpt lat="25.14694675428888" lon="-99.94608608760802"></trkpt>
      <trkpt lat="25.14693219800667" lon="-99.9460543391119"></trkpt>
      <trkpt lat="25.146917287933913" lon="-99.94602184922482"></trkpt>
      <trkpt lat="25.14690209002894" lon="-99.94598875911782"></trkpt>
      <trkpt lat="25.14688667025011" lon="-99.945955209962"></trkpt>
      <trkpt lat="25.14687109455576" lon="-99.94592134292839"></trkpt>
      <trkpt lat="25.14685542890423" lon="-99.94588729918803"></trkpt>
      <trkpt lat="25.14683973925387" lon="-99.945853219912"></trkpt>
      <trkpt lat="25.14682409156302" lon="-99.94581924627137"></trkpt>
      <trkpt lat="25.146808551790024" lon="-99.94578551943714"></trkpt>
      <trkpt lat="25.14679318589322" lon="-99.94575218058043"></trkpt>
      <trkpt lat="25.146778059830954" lon="-99.94571937087225"></trkpt>
      <trkpt lat="25.14676323956158" lon="-99.94568723148366"></trkpt>
      <trkpt lat="25.14674879104343" lon="-99.94565590358575"></trkpt>
      <trkpt lat="25.146734780234848" lon="-99.94562552834955"></trkpt>
      <trkpt lat="25.14672127309418" lon="-99.9455962469461"></trkpt>
      <trkpt lat="25.14670833557977" lon="-99.94556820054648"></trkpt>
      <trkpt lat="25.14669603364996" lon="-99.94554153032175"></trkpt>
      <trkpt lat="25.14668443326309" lon="-99.94551637744293"></trkpt>
      <trkpt lat="25.14667360037751" lon="-99.94549288308112"></trkpt>
      <trkpt lat="25.14666360095156" lon="-99.94547118840734"></trkpt>
      <trkpt lat="25.146654500943587" lon="-99.94545143459267"></trkpt>
      <trkpt lat="25.14664636631193" lon="-99.94543376280815"></trkpt>
      <trkpt lat="25.146639263014933" lon="-99.94541831422488"></trkpt>
    </trkseg>
  </trk>
  <wpt lat="25.146462333116116" lon="-99.9442815647224">
    <name>Photo_1 - Image 11</name>
    <desc>Marble position along route - Image 11</desc>
  </wpt>
  <wpt lat="25.146429265315867" lon="-99.94421463633716">
    <name>Photo_2 - Image 12</name>
    <desc>Marble position along route - Image 12</desc>
  </wpt>
  <wpt lat="25.14639217457085" lon="-99.94415032283827">
    <name>Photo_3 - Image 13</name>
    <desc>Marble position along route - Image 13</desc>
  </wpt>
  <wpt lat="25.146352533642492" lon="-99.94408788511697">
    <name>Photo_4 - Image 14</name>
    <desc>Marble position along route - Image 14</desc>
  </wpt>
  <wpt lat="25.146302794317258" lon="-99.94401311836388">
    <name>Photo_5 - Image 15</name>
    <desc>Marble position along route - Image 15</desc>
  </wpt>
  <wpt lat="25.146253977796974" lon="-99.94393860631978">
    <name>Photo_6 - Image 16</name>
    <desc>Marble position along route - Image 16</desc>
  </wpt>
  <wpt lat="25.14621588283026" lon="-99.94387599489318">
    <name>Photo_7 - Image 17</name>
    <desc>Marble position along route - Image 17</desc>
  </wpt>
  <wpt lat="25.146180279652196" lon="-99.94381161350715">
    <name>Photo_8 - Image 18</name>
    <desc>Marble position along route - Image 18</desc>
  </wpt>
  <wpt lat="25.14614497911472" lon="-99.94374702688714">
    <name>Photo_9 - Image 19</name>
    <desc>Marble position along route - Image 19</desc>
  </wpt>
  <wpt lat="25.14611025196304" lon="-99.9436820628632">
    <name>Photo_10 - Image 20</name>
    <desc>Marble position along route - Image 20</desc>
  </wpt>
  <wpt lat="25.146076773230927" lon="-99.94361630581975">
    <name>Photo_11 - Image 21</name>
    <desc>Marble position along route - Image 21</desc>
  </wpt>
  <wpt lat="25.146045227964915" lon="-99.94354939502986">
    <name>Photo_12 - Image 22</name>
    <desc>Marble position along route - Image 22</desc>
  </wpt>
  <wpt lat="25.146016425115274" lon="-99.94348099554955">
    <name>Photo_13 - Image 23</name>
    <desc>Marble position along route - Image 23</desc>
  </wpt>
  <wpt lat="25.145990931730577" lon="-99.94341021686508">
    <name>Photo_14 - Image 24</name>
    <desc>Marble position along route - Image 24</desc>
  </wpt>
  <wpt lat="25.14596325719537" lon="-99.94332006152358">
    <name>Photo_15 - Image 25</name>
    <desc>Marble position along route - Image 25</desc>
  </wpt>
  <wpt lat="25.145939450476636" lon="-99.94322857051998">
    <name>Photo_16 - Image 26</name>
    <desc>Marble position along route - Image 26</desc>
  </wpt>
  <wpt lat="25.14592017762391" lon="-99.94313578965333">
    <name>Photo_17 - Image 27</name>
    <desc>Marble position along route - Image 27</desc>
  </wpt>
  <wpt lat="25.145909776856033" lon="-99.94307009887807">
    <name>Photo_18 - Image 28</name>
    <desc>Marble position along route - Image 28</desc>
  </wpt>
  <wpt lat="25.14590124666702" lon="-99.94299103041222">
    <name>Photo_19 - Image 29</name>
    <desc>Marble position along route - Image 29</desc>
  </wpt>
  <wpt lat="25.14589811470614" lon="-99.94291150714187">
    <name>Photo_20 - Image 30</name>
    <desc>Marble position along route - Image 30</desc>
  </wpt>
  <wpt lat="25.145912018434256" lon="-99.94280203097381">
    <name>Photo_21 - Image 31</name>
    <desc>Marble position along route - Image 31</desc>
  </wpt>
  <wpt lat="25.145937153359377" lon="-99.94269484038345">
    <name>Photo_22 - Image 32</name>
    <desc>Marble position along route - Image 32</desc>
  </wpt>
  <wpt lat="25.14595829867294" lon="-99.94258665858632">
    <name>Photo_23 - Image 33</name>
    <desc>Marble position along route - Image 33</desc>
  </wpt>
  <wpt lat="25.14596201411825" lon="-99.94247625010121">
    <name>Photo_24 - Image 34</name>
    <desc>Marble position along route - Image 34</desc>
  </wpt>
  <wpt lat="25.145942795140872" lon="-99.94236774934157">
    <name>Photo_25 - Image 35</name>
    <desc>Marble position along route - Image 35</desc>
  </wpt>
  <wpt lat="25.145911139355118" lon="-99.94226271554076">
    <name>Photo_26 - Image 36</name>
    <desc>Marble position along route - Image 36</desc>
  </wpt>
  <wpt lat="25.145873759167035" lon="-99.9421599761961">
    <name>Photo_27 - Image 37</name>
    <desc>Marble position along route - Image 37</desc>
  </wpt>
  <wpt lat="25.145833557177564" lon="-99.94205853774038">
    <name>Photo_28 - Image 38</name>
    <desc>Marble position along route - Image 38</desc>
  </wpt>
  <wpt lat="25.145792697758246" lon="-99.94195741880488">
    <name>Photo_29 - Image 39</name>
    <desc>Marble position along route - Image 39</desc>
  </wpt>
  <wpt lat="25.145754589518667" lon="-99.94185501920579">
    <name>Photo_30 - Image 40</name>
    <desc>Marble position along route - Image 40</desc>
  </wpt>
  <wpt lat="25.14572471701664" lon="-99.94174935396644">
    <name>Photo_31 - Image 41</name>
    <desc>Marble position along route - Image 41</desc>
  </wpt>
  <wpt lat="25.145699551948315" lon="-99.94164221433813">
    <name>Photo_32 - Image 42</name>
    <desc>Marble position along route - Image 42</desc>
  </wpt>
  <wpt lat="25.14565084627844" lon="-99.94154579873832">
    <name>Photo_33 - Image 43</name>
    <desc>Marble position along route - Image 43</desc>
  </wpt>
  <wpt lat="25.145601763653286" lon="-99.94149815618482">
    <name>Photo_34 - Image 44</name>
    <desc>Marble position along route - Image 44</desc>
  </wpt>
  <wpt lat="25.145543902501995" lon="-99.94152595695773">
    <name>Photo_35 - Image 45</name>
    <desc>Marble position along route - Image 45</desc>
  </wpt>
  <wpt lat="25.14549940980934" lon="-99.94159850349111">
    <name>Photo_36 - Image 46</name>
    <desc>Marble position along route - Image 46</desc>
  </wpt>
  <wpt lat="25.145474288065753" lon="-99.94170445735998">
    <name>Photo_37 - Image 47</name>
    <desc>Marble position along route - Image 47</desc>
  </wpt>
  <wpt lat="25.145468632075314" lon="-99.94181425756213">
    <name>Photo_38 - Image 48</name>
    <desc>Marble position along route - Image 48</desc>
  </wpt>
  <wpt lat="25.145469846023133" lon="-99.94192425647753">
    <name>Photo_39 - Image 49</name>
    <desc>Marble position along route - Image 49</desc>
  </wpt>
  <wpt lat="25.145476348387064" lon="-99.9420340260095">
    <name>Photo_40 - Image 50</name>
    <desc>Marble position along route - Image 50</desc>
  </wpt>
  <wpt lat="25.145493110127635" lon="-99.94214229460707">
    <name>Photo_41 - Image 51</name>
    <desc>Marble position along route - Image 51</desc>
  </wpt>
  <wpt lat="25.145535871305785" lon="-99.94224136612453">
    <name>Photo_42 - Image 52</name>
    <desc>Marble position along route - Image 52</desc>
  </wpt>
  <wpt lat="25.145577862193996" lon="-99.94234105858234">
    <name>Photo_43 - Image 53</name>
    <desc>Marble position along route - Image 53</desc>
  </wpt>
  <wpt lat="25.14561907573466" lon="-99.94244121506952">
    <name>Photo_44 - Image 54</name>
    <desc>Marble position along route - Image 54</desc>
  </wpt>
  <wpt lat="25.145659713883294" lon="-99.94254165640184">
    <name>Photo_45 - Image 55</name>
    <desc>Marble position along route - Image 55</desc>
  </wpt>
  <wpt lat="25.145696376623405" lon="-99.9426439309743">
    <name>Photo_46 - Image 56</name>
    <desc>Marble position along route - Image 56</desc>
  </wpt>
  <wpt lat="25.1457243269985" lon="-99.94274945326782">
    <name>Photo_47 - Image 57</name>
    <desc>Marble position along route - Image 57</desc>
  </wpt>
  <wpt lat="25.145740968922766" lon="-99.94285788685778">
    <name>Photo_48 - Image 58</name>
    <desc>Marble position along route - Image 58</desc>
  </wpt>
  <wpt lat="25.145751631874067" lon="-99.94296727041448">
    <name>Photo_49 - Image 59</name>
    <desc>Marble position along route - Image 59</desc>
  </wpt>
  <wpt lat="25.14576255611305" lon="-99.94307662053393">
    <name>Photo_50 - Image 60</name>
    <desc>Marble position along route - Image 60</desc>
  </wpt>
  <wpt lat="25.1457825663698" lon="-99.94319307182386">
    <name>Photo_51 - Image 61</name>
    <desc>Marble position along route - Image 61</desc>
  </wpt>
  <wpt lat="25.14580814152402" lon="-99.94329944300054">
    <name>Photo_52 - Image 62</name>
    <desc>Marble position along route - Image 62</desc>
  </wpt>
  <wpt lat="25.145829430028634" lon="-99.94340690786399">
    <name>Photo_53 - Image 63</name>
    <desc>Marble position along route - Image 63</desc>
  </wpt>
  <wpt lat="25.145834619989497" lon="-99.94351659896643">
    <name>Photo_54 - Image 64</name>
    <desc>Marble position along route - Image 64</desc>
  </wpt>
  <wpt lat="25.145818951938416" lon="-99.94362517588942">
    <name>Photo_55 - Image 65</name>
    <desc>Marble position along route - Image 65</desc>
  </wpt>
  <wpt lat="25.145794340344214" lon="-99.94373182028036">
    <name>Photo_56 - Image 66</name>
    <desc>Marble position along route - Image 66</desc>
  </wpt>
  <wpt lat="25.145771623086425" lon="-99.94383895266452">
    <name>Photo_57 - Image 67</name>
    <desc>Marble position along route - Image 67</desc>
  </wpt>
  <wpt lat="25.145762663573727" lon="-99.9439405234753">
    <name>Photo_58 - Image 68</name>
    <desc>Marble position along route - Image 68</desc>
  </wpt>
  <wpt lat="25.145766023121887" lon="-99.9440616084822">
    <name>Photo_59 - Image 69</name>
    <desc>Marble position along route - Image 69</desc>
  </wpt>
  <wpt lat="25.145780414832206" lon="-99.94418176940279">
    <name>Photo_60 - Image 70</name>
    <desc>Marble position along route - Image 70</desc>
  </wpt>
  <wpt lat="25.145798264281964" lon="-99.94430137907862">
    <name>Photo_61 - Image 71</name>
    <desc>Marble position along route - Image 71</desc>
  </wpt>
  <wpt lat="25.14581905892008" lon="-99.9444204066027">
    <name>Photo_62 - Image 72</name>
    <desc>Marble position along route - Image 72</desc>
  </wpt>
  <wpt lat="25.145842524180456" lon="-99.94453882683867">
    <name>Photo_63 - Image 73</name>
    <desc>Marble position along route - Image 73</desc>
  </wpt>
  <wpt lat="25.145868848591732" lon="-99.94465651000965">
    <name>Photo_64 - Image 74</name>
    <desc>Marble position along route - Image 74</desc>
  </wpt>
  <wpt lat="25.14589942902449" lon="-99.94477441166738">
    <name>Photo_65 - Image 75</name>
    <desc>Marble position along route - Image 75</desc>
  </wpt>
  <wpt lat="25.14593450663778" lon="-99.94489078181446">
    <name>Photo_66 - Image 76</name>
    <desc>Marble position along route - Image 76</desc>
  </wpt>
  <wpt lat="25.14597209944836" lon="-99.94500619407586">
    <name>Photo_67 - Image 77</name>
    <desc>Marble position along route - Image 77</desc>
  </wpt>
  <wpt lat="25.146010517877592" lon="-99.94512127549585">
    <name>Photo_68 - Image 78</name>
    <desc>Marble position along route - Image 78</desc>
  </wpt>
  <wpt lat="25.146049227998176" lon="-99.94523622609046">
    <name>Photo_69 - Image 79</name>
    <desc>Marble position along route - Image 79</desc>
  </wpt>
  <wpt lat="25.146078820419387" lon="-99.94531267121805">
    <name>Photo_70 - Image 80</name>
    <desc>Marble position along route - Image 80</desc>
  </wpt>
  <wpt lat="25.146112640141848" lon="-99.94541157265199">
    <name>Photo_71 - Image 81</name>
    <desc>Marble position along route - Image 81</desc>
  </wpt>
  <wpt lat="25.14613380559878" lon="-99.9455145949288">
    <name>Photo_72 - Image 82</name>
    <desc>Marble position along route - Image 82</desc>
  </wpt>
  <wpt lat="25.1461398610608" lon="-99.94562012828912">
    <name>Photo_73 - Image 83</name>
    <desc>Marble position along route - Image 83</desc>
  </wpt>
  <wpt lat="25.14614246505815" lon="-99.94572587085726">
    <name>Photo_74 - Image 84</name>
    <desc>Marble position along route - Image 84</desc>
  </wpt>
  <wpt lat="25.14614962777378" lon="-99.94583131562128">
    <name>Photo_75 - Image 85</name>
    <desc>Marble position along route - Image 85</desc>
  </wpt>
  <wpt lat="25.14653387852426" lon="-99.94603314089454">
    <name>Photo_76 - Image 91</name>
    <desc>Marble position along route - Image 91</desc>
  </wpt>
  <wpt lat="25.146513081606646" lon="-99.94613651942971">
    <name>Photo_77 - Image 92</name>
    <desc>Marble position along route - Image 92</desc>
  </wpt>
  <wpt lat="25.14651922616428" lon="-99.94624226987665">
    <name>Photo_78 - Image 93</name>
    <desc>Marble position along route - Image 93</desc>
  </wpt>
  <wpt lat="25.146530856377968" lon="-99.9463476567126">
    <name>Photo_79 - Image 94</name>
    <desc>Marble position along route - Image 94</desc>
  </wpt>
  <wpt lat="25.14654349134102" lon="-99.94645290181708">
    <name>Photo_80 - Image 95</name>
    <desc>Marble position along route - Image 95</desc>
  </wpt>
  <wpt lat="25.146557627160977" lon="-99.94655791286327">
    <name>Photo_81 - Image 96</name>
    <desc>Marble position along route - Image 96</desc>
  </wpt>
  <wpt lat="25.14657389285758" lon="-99.94666254512964">
    <name>Photo_82 - Image 97</name>
    <desc>Marble position along route - Image 97</desc>
  </wpt>
  <wpt lat="25.146593488820074" lon="-99.94676647231039">
    <name>Photo_83 - Image 98</name>
    <desc>Marble position along route - Image 98</desc>
  </wpt>
  <wpt lat="25.146619006170532" lon="-99.94686879509509">
    <name>Photo_84 - Image 99</name>
    <desc>Marble position along route - Image 99</desc>
  </wpt>
  <wpt lat="25.14665257229144" lon="-99.94696824127377">
    <name>Photo_85 - Image 100</name>
    <desc>Marble position along route - Image 100</desc>
  </wpt>
  <wpt lat="25.146704146755035" lon="-99.94708794158214">
    <name>Photo_86 - Image 101</name>
    <desc>Marble position along route - Image 101</desc>
  </wpt>
  <wpt lat="25.14676153537986" lon="-99.94720440732685">
    <name>Photo_87 - Image 102</name>
    <desc>Marble position along route - Image 102</desc>
  </wpt>
  <wpt lat="25.146818169302684" lon="-99.94732132141057">
    <name>Photo_88 - Image 103</name>
    <desc>Marble position along route - Image 103</desc>
  </wpt>
  <wpt lat="25.146866048610743" lon="-99.9474230938403">
    <name>Photo_89 - Image 104</name>
    <desc>Marble position along route - Image 104</desc>
  </wpt>
  <wpt lat="25.14691596423318" lon="-99.94752365775798">
    <name>Photo_90 - Image 105</name>
    <desc>Marble position along route - Image 105</desc>
  </wpt>
  <wpt lat="25.14697059162568" lon="-99.94762117053472">
    <name>Photo_91 - Image 106</name>
    <desc>Marble position along route - Image 106</desc>
  </wpt>
  <wpt lat="25.147031894452432" lon="-99.9477136970292">
    <name>Photo_92 - Image 107</name>
    <desc>Marble position along route - Image 107</desc>
  </wpt>
  <wpt lat="25.147096962610526" lon="-99.94780307295021">
    <name>Photo_93 - Image 108</name>
    <desc>Marble position along route - Image 108</desc>
  </wpt>
  <wpt lat="25.147163928348363" lon="-99.94789071810072">
    <name>Photo_94 - Image 109</name>
    <desc>Marble position along route - Image 109</desc>
  </wpt>
  <wpt lat="25.147263145827726" lon="-99.9480075998403">
    <name>Photo_95 - Image 110</name>
    <desc>Marble position along route - Image 110</desc>
  </wpt>
  <wpt lat="25.147383592698212" lon="-99.94808773511302">
    <name>Photo_96 - Image 111</name>
    <desc>Marble position along route - Image 111</desc>
  </wpt>
  <wpt lat="25.147426601615052" lon="-99.94798967163597">
    <name>Photo_97 - Image 112</name>
    <desc>Marble position along route - Image 112</desc>
  </wpt>
  <wpt lat="25.147435307045647" lon="-99.94787666811929">
    <name>Photo_98 - Image 113</name>
    <desc>Marble position along route - Image 113</desc>
  </wpt>
  <wpt lat="25.1474359514365" lon="-99.94776319386429">
    <name>Photo_99 - Image 114</name>
    <desc>Marble position along route - Image 114</desc>
  </wpt>
  <wpt lat="25.147433214970278" lon="-99.94764975228736">
    <name>Photo_100 - Image 115</name>
    <desc>Marble position along route - Image 115</desc>
  </wpt>
  <wpt lat="25.147422325955688" lon="-99.94753694339157">
    <name>Photo_101 - Image 116</name>
    <desc>Marble position along route - Image 116</desc>
  </wpt>
  <wpt lat="25.14740425040845" lon="-99.94742523959931">
    <name>Photo_102 - Image 117</name>
    <desc>Marble position along route - Image 117</desc>
  </wpt>
  <wpt lat="25.14738218493942" lon="-99.94731440454892">
    <name>Photo_103 - Image 118</name>
    <desc>Marble position along route - Image 118</desc>
  </wpt>
  <wpt lat="25.14735697120635" lon="-99.9471972678418">
    <name>Photo_104 - Image 119</name>
    <desc>Marble position along route - Image 119</desc>
  </wpt>
  <wpt lat="25.147330691381814" lon="-99.94708041950688">
    <name>Photo_105 - Image 120</name>
    <desc>Marble position along route - Image 120</desc>
  </wpt>
  <wpt lat="25.14730177143225" lon="-99.94696433675749">
    <name>Photo_106 - Image 121</name>
    <desc>Marble position along route - Image 121</desc>
  </wpt>
  <wpt lat="25.147269462539487" lon="-99.94684935268883">
    <name>Photo_107 - Image 122</name>
    <desc>Marble position along route - Image 122</desc>
  </wpt>
  <wpt lat="25.147233004151808" lon="-99.94673589632454">
    <name>Photo_108 - Image 123</name>
    <desc>Marble position along route - Image 123</desc>
  </wpt>
  <wpt lat="25.147191453506736" lon="-99.94662460418094">
    <name>Photo_109 - Image 124</name>
    <desc>Marble position along route - Image 124</desc>
  </wpt>
  <wpt lat="25.14714425727436" lon="-99.94651608844853">
    <name>Photo_110 - Image 125</name>
    <desc>Marble position along route - Image 125</desc>
  </wpt>
  <wpt lat="25.147094466252433" lon="-99.94640898436867">
    <name>Photo_111 - Image 126</name>
    <desc>Marble position along route - Image 126</desc>
  </wpt>
  <wpt lat="25.147044993039533" lon="-99.94630170095732">
    <name>Photo_112 - Image 127</name>
    <desc>Marble position along route - Image 127</desc>
  </wpt>
  <wpt lat="25.146996125290368" lon="-99.94619407897085">
    <name>Photo_113 - Image 128</name>
    <desc>Marble position along route - Image 128</desc>
  </wpt>
  <wpt lat="25.14694699127141" lon="-99.94608660503931">
    <name>Photo_114 - Image 129</name>
    <desc>Marble position along route - Image 129</desc>
  </wpt>
  <wpt lat="25.146897704171156" lon="-99.94597921670693">
    <name>Photo_115 - Image 130</name>
    <desc>Marble position along route - Image 130</desc>
  </wpt>
  <wpt lat="25.14684847802144" lon="-99.94587220126692">
    <name>Photo_116 - Image 131</name>
    <desc>Marble position along route - Image 131</desc>
  </wpt>
</gpx>